OBJECTID,TRL_NAME,PARK_NAME,FEATURE_ID,TRL_ID,SEG_ID,STG_AR_ID,SUB_TYPE,FEATURE,FEAT_CMNT,ELEV_FT,CITY_JUR,ZIP_CODE,SUP_DIST,X_STREET,X,Y,PARKING,PHOTO,TXT_E,LAT,LON,DB_ID,DIR_LAT,DIR_LON
7090,Norman O Houston Park Trails,Norman O Houston Park,0600003,060010,0600100001,060010,1,TH,,439,Los Angeles,90008,2nd District,"None, use staging area XY for directions","118° 21' 28.216"" W","33° 59' 57.767"" N",SA,,Mapped,33.99938443,-118.35784995,417,33.99901965,-118.35794485
7092,Park to Playa Trail,,0600005,060001,,060009,1,TAPO,,486,Unincorporated Los Angeles County,90008,2nd District,"None, use staging area XY for directions","118° 21' 42.797"" W","34° 0' 25.506"" N",SA,,Mapped,34.00708984,-118.3619002,237,34.0060917,-118.36232456
7093,Park to Playa Trail,,0600006,060001,,060003,1,TAPO,,286,Unincorporated Los Angeles County,90008,2nd District,"None, use staging area XY for directions","118° 22' 11.003"" W","34° 0' 41.656"" N",SA,,Mapped,34.01157584,-118.36973521,237,34.01163055,-118.36996323
7094,Park to Playa Trail,,0600007,060001,,060006,1,TH,,291,Unincorporated Los Angeles County,90008,2nd District,"None, use staging area XY for directions","118° 22' 19.463"" W","34° 0' 49.154"" N",SA,,Mapped,34.01365884,-118.37208521,237,34.0130025,-118.37142937
7097,Park to Playa Trail,,0600010,060001,,060001,1,TAPO,,234,Culver City,90232,2nd District,"None, use staging area XY for directions","118° 23' 9.964"" W","34° 0' 57.618"" N",SA,,Mapped,34.01600984,-118.38611321,237,34.01449034,-118.38658957
7100,Park to Playa Trail,,0600013,060001,,060001,1,TH,,147,Culver City,90232,2nd District,"None, use staging area XY for directions","118° 23' 10.514"" W","34° 0' 50.785"" N",SA,,Mapped,34.01411184,-118.38626621,237,34.01449034,-118.38658957
7101,Park to Playa Trail,,0600014,060001,,060001,1,TAPO,,150,Culver City,90232,2nd District,"None, use staging area XY for directions","118° 23' 11.922"" W","34° 0' 52.906"" N",SA,,Mapped,34.01470084,-118.38665721,237,34.01449034,-118.38658957
7107,Park to Playa Trail,,0600022,060001,,,1,TH,,12,Los Angeles,90293,4th District,"None, use XY for directions","118° 27' 13.156"" W","33° 57' 48.680"" N",ST,,Mapped,33.96352711,-118.45366679,237,33.96352228,-118.45365458
7116,Park to Playa Trail,,0600034,060001,,060009,1,TH,,489,Unincorporated Los Angeles County,90008,2nd District,"None, use staging area XY for directions","118° 21' 44.039"" W","34° 0' 21.107"" N",SA,,Mapped,34.00586784,-118.3622452,237,34.0060917,-118.36232456
7122,Park to Playa Trail,,0600041,060001,,060002,1,TH,,395,Culver City,90232,2nd District,"None, use staging area XY for directions","118° 22' 55.155"" W","34° 0' 57.524"" N",SA,,Mapped,34.01598375,-118.38199984,237,34.01580519,-118.38190463
7123,Park to Playa Trail,,0600042,060001,,060001,1,TAPO,,225,Culver City,90232,2nd District,"None, use staging area XY for directions","118° 23' 10.050"" W","34° 0' 54.850"" N",SA,,Mapped,34.01524084,-118.38613721,237,34.01449034,-118.38658957
7139,Ballona Creek Bike Path,,0600059,060002,,,1,TH,,12,Los Angeles,90293,4th District,"None, use XY for directions","118° 27' 13.156"" W","33° 57' 48.680"" N",ST,,Mapped,33.96352711,-118.45366679,91,33.96352228,-118.45365458
7144,La Brea Loop,,0600064,060003,0600030002,,1,TAPO,,491,Unincorporated Los Angeles County,90008,2nd District,"None, use XY for directions","118° 21' 43.297"" W","34° 0' 8.996"" N",N,,Mapped,34.00250384,-118.3620392,410,34.002499,-118.362027
7145,Stocker Corridor,,0600001,060006,0600060001,,1,TAPO,,208,Unincorporated Los Angeles County,90008,2nd District,"None, use XY for directions","118° 20' 30.412"" W","34° 0' 16.232"" N",ST,,Mapped,34.00451385,-118.3417932,413,34.004509,-118.341781
7147,Eastern Ridge Trail,,0600037,060004,0600040001,,1,TAPO,,433,Unincorporated Los Angeles County,90008,2nd District,"None, use XY for directions","118° 21' 29.509"" W","33° 59' 50.075"" N",ST,,Mapped,33.99724784,-118.3582092,411,33.997243,-118.358197
7148,Rons Trail,,0600065,060009,0600010001,,1,TAPO,,491,Unincorporated Los Angeles County,90008,2nd District,"None, use XY for directions","118° 21' 43.297"" W","34° 0' 8.996"" N",N,,Mapped,34.00250384,-118.3620392,416,34.002499,-118.362027
7149,Bowl Loop,,0600066,060005,,060009,1,TAPO,,486,Unincorporated Los Angeles County,90008,2nd District,"None, use staging area XY for directions","118° 21' 42.797"" W","34° 0' 25.506"" N",SA,,Mapped,34.00708984,-118.3619002,412,34.0060917,-118.36232456
7150,Steps Trail,,0600067,060008,,060002,1,TH,,395,Culver City,90232,2nd District,"None, use staging area XY for directions","118° 22' 55.155"" W","34° 0' 57.524"" N",SA,,Mapped,34.01598375,-118.38199984,415,34.01580519,-118.38190463
7151,Rueben Ingold Park,,0600066,060011,0600010005,060011,1,TAPO,,439,Unincorporated Los Angeles County,90043,2nd District,"None, use XY for directions","118° 21' 26.838"" W","33° 59' 48.041"" N",ST,,Mapped,33.99668284,-118.3574672,418,33.996799,-118.357047
7152,Hillside Trail - Baldwin Hills,,0600068,060007,0600070000,,1,TAPO,,81,Culver City,90232,2nd District,"None, use XY for directions","118° 22' 56.798"" W","34° 1' 13.379"" N",ST,,Mapped,34.02038784,-118.38245621,414,34.020383,-118.382444
7159,Stephens Ranch Spur Trail,Marshall Canyon Park,0000190,000027,0000270001,000001,1,TAPO,,1881,Unincorporated Los Angeles County,91750,5th District,Stephens Ranch Rd and E Stephens Ranch Rd,"117° 44' 43.449"" W","34° 9' 6.620"" N",SA,20120706_152523.jpg,Mapped,34.15184367,-117.74541449,50,34.1518096,-117.74588913
7176,Stephens Ranch Spur Trail,,0000472,000027,0000270001,,1,TH,marshall Canyon to claremont loop,1855,Unincorporated Los Angeles County,91750,5th District,Stephens Ranch Rd and E Stephens Ranch Rd,"117° 44' 22.859"" W","34° 9' 7.361"" N",SA,,Mapped,34.15204957,-117.73969529,50,34.15204468,-117.73968318
7177,Stephens Ranch Spur Trail,,0000473,000027,0000270001,000001,1,TAPO,,1880,Unincorporated Los Angeles County,91750,5th District,Stephens Ranch Rd and E Stephens Ranch Rd,"117° 44' 43.096"" W","34° 9' 6.816"" N",SA,,Mapped,34.15189826,-117.74531654,50,34.1518096,-117.74588913
7178,Palmdale Hills Trail,,0000483,000028,0000280001,000003,1,TH,,2957,Unincorporated Los Angeles County,93550,5th District,E Barrel Springs Rd and Courson Ranch Rd,"118° 6' 55.153"" W","34° 32' 20.629"" N",SA,,Mapped,34.53906865,-118.11533236,45,34.53913806,-118.11522202
7183,Darrell Readmond Trail,Acton County Park,0000748,000010,0000100001,000019,1,TAPO,vehicles blocked by bolders,2719,Unincorporated Los Angeles County,93510,5th District,Syracuse Ave and 2nd St,"118° 11' 58.026"" W","34° 28' 18.812"" N",SA,IMG_0006338.jpg,Mapped,34.47189726,-118.19946401,21,34.47203244,-118.19890989
7184,Darrell Readmond Trail,Acton County Park,0000749,000010,0000100001,000019,1,TAPO,entrace to parking lot,2717,Unincorporated Los Angeles County,93510,5th District,Syracuse Ave and 2nd St,"118° 11' 56.682"" W","34° 28' 18.629"" N",SA,IMG_0006341.jpg,Mapped,34.47184638,-118.19909053,21,34.47203244,-118.19890989
7185,Darrell Readmond Trail,Acton County Park,0000750,000010,0000100001,000019,1,TAPO,entrace to parking lot and trail,2716,Unincorporated Los Angeles County,93510,5th District,Syracuse Ave and 2nd St,"118° 11' 55.175"" W","34° 28' 18.673"" N",SA,IMG_0006346.jpg,Mapped,34.4718584,-118.19867206,21,34.47203244,-118.19890989
7192,Darrell Readmond Trail,Acton County Park,0000757,000010,0000100001,000019,1,TH,,2717,Unincorporated Los Angeles County,93510,5th District,Syracuse Ave and 2nd St,"118° 11' 58.159"" W","34° 28' 18.501"" N",SA,,Mapped,34.47181072,-118.19950095,21,34.47203244,-118.19890989
7193,Cliffie Stone Trail,West Creek Community Park,0000859,000006,0000060001,000008,1,TAPO,from res to  bike path,1184,Unincorporated Los Angeles County,91354,5th District,Camino Del Arte Dr and Village Circle,"118° 33' 32.507"" W","34° 27' 14.794"" N",SA,IMG_0006584.jpg,Mapped,34.45411433,-118.55904198,19,34.45625268,-118.55868004
7199,Vasquez Loop Trail,,0000874,000039,0000390001,,1,TH,,3506,Unincorporated Los Angeles County,93510,5th District,Athena St and Katrina St,"118° 9' 17.946"" W","34° 30' 35.562"" N",ST,,Mapped,34.50988336,-118.15499722,55,34.50709018,-118.15557131
7200,Cliffie Stone Trail,,0000876,000006,0000060001,,1,TH,,1143,Santa Clarita,91355,5th District,Decoro Dr and Dickason Dr,"118° 33' 40.438"" W","34° 26' 31.164"" N",ST,,Mapped,34.44199502,-118.56124507,19,34.44199014,-118.5612328
7207,Hillside Trail,Placerita Canyon Natural Area,0001093,000017,0000170001,000004,1,TAPO,connects to path in staging area,1522,Unincorporated Los Angeles County,91321,5th District,Placerita Canyon Rd and Running Horse Rd,"118° 28' 9.968"" W","34° 22' 35.988"" N",SA,IMG_0013484.jpg,Mapped,34.37666824,-118.46944769,30,34.37751913,-118.46861925
7208,Hillside Trail,Placerita Canyon Natural Area,0001095,000017,0000170001,000004,1,TH,at rd.,1527,Unincorporated Los Angeles County,91321,5th District,Placerita Canyon Rd and Running Horse Rd,"118° 28' 16.607"" W","34° 22' 36.022"" N",SA,IMG_0013489.jpg,Mapped,34.37667763,-118.47129187,30,34.37751913,-118.46861925
7209,Hasley Canyon Trail,,0001098,000015,0000150001,,1,TH,,1090,Unincorporated Los Angeles County,91355,5th District,Witherspoon Pkwy and Commerce Center Dr,"118° 37' 35.631"" W","34° 26' 52.096"" N",ST,IMG_0006638.jpg,Mapped,34.44780929,-118.62657645,27,34.44780442,-118.62656417
7210,Manzanita Mountain Trail,Placerita Canyon Natural Area,0001099,000023,0000230001,000004,1,TH,Junction with Placerita Creek at Trailhead,1534,Unincorporated Los Angeles County,91321,5th District,Placerita Canyon Rd and Running Horse Rd,"118° 28' 3.298"" W","34° 22' 38.467"" N",SA,IMG_0013388.jpg,Mapped,34.37735685,-118.46759507,39,34.37751913,-118.46861925
7221,Fair Oaks Trail,,0001237,000032,0000320001,,1,TH,,1543,Unincorporated Los Angeles County,91387,5th District,Valley Ranch Rd and Rolling Hills Ave,"118° 25' 42.668"" W","34° 24' 45.677"" N",ST,,Mapped,34.41269295,-118.42853105,23,34.41268807,-118.4285188
7222,Pico Canyon Trail,Pico Canyon Park,0001238,000030,0000300001,000009,1,TH,,1394,Unincorporated Los Angeles County,91381,5th District,Pico Canyon Rd and Stevenson Ranch Pkwy,"118° 35' 1.159"" W","34° 22' 44.319"" N",SA,,Mapped,34.37898238,-118.58366742,44,34.37816062,-118.58466573
7223,North Park Trail,,0001239,000026,0000260001,,1,TH,,1287,Santa Clarita,91354,5th District,San Francisquito Canyon Rd and Farmer John Lateral,"118° 32' 39.056"" W","34° 27' 59.119"" N",ST,,Mapped,34.46642688,-118.5441946,43,34.466422,-118.54418233
7225,Waterfall Trail,Placerita Canyon Natural Area,0001278,000040,0000400001,000010,1,TH,,1811,Unincorporated Los Angeles County,91321,5th District,Placerita Canyon Rd and Placerita Mtwy,"118° 26' 38.920"" W","34° 22' 33.497"" N",SA,,Mapped,34.37597625,-118.4441568,58,34.37641131,-118.44530117
7227,Los Pinetos Trail,,0001424,000021,0000210005,,1,TH,from olive view,1434,Los Angeles,91342,5th District,Olive View Dr and Reagan Rd,"118° 26' 35.730"" W","34° 19' 29.051"" N",ST,IMG_0013856.jpg,Mapped,34.32474126,-118.44327049,34,34.32473639,-118.44325825
7228,Los Pinetos Trail,,0001428,000021,0000210003,,1,TH,from olive view dr near roxford,1429,Los Angeles,91342,3rd District,Olive View Dr and Bucher Ave,"118° 27' 28.741"" W","34° 19' 26.816"" N",ST,IMG_0013797.jpg,Mapped,34.32412033,-118.45799573,34,34.32411545,-118.45798348
7230,La Canada Open Space Trail,,0001522,000019,0000190001,,1,TH,off of Indiana near foothill,1454,La Canada Flintridge,91011,5th District,Foothill Blvd and Indiana Ave,"118° 12' 35.900"" W","34° 12' 35.318"" N",ST,IMG_0013857.jpg,Mapped,34.20981553,-118.20998429,33,34.20981065,-118.20997209
7248,Gould Canyon Trail,,0001728,000014,0000140004,,1,TH,on foothill,1107,Pasadena,91011,5th District,Foothill Blvd and Oak Grove Dr,"118° 10' 41.479"" W","34° 11' 39.814"" N",ST,IMG_00131158.jpg,Mapped,34.19439772,-118.17820092,26,34.19439285,-118.17818873
7249,Eaton Canyon Trail,Eaton Canyon Nature Center,0001831,000011,0000110002,000014,1,TAPO,w/ trail/rd. to horse staging,956,Pasadena,91107,5th District,New York Dr and Creekside Ct,"118° 5' 46.139"" W","34° 10' 34.937"" N",SA,IMG_00131182.jpg,Mapped,34.17637625,-118.09616183,22,34.1752914,-118.09642273
7258,Los Pinetos Trail,Placerita Canyon Natural Area,0002143,000021,0000210001,000011,1,TH,,1898,Unincorporated Los Angeles County,91321,5th District,Placerita Canyon Rd and Placerita Mtwy,"118° 26' 33.299"" W","34° 22' 41.062"" N",SA,,Mapped,34.37807752,-118.44259534,34,34.37805885,-118.44266986
7260,Eaton Canyon Trail,Eaton Canyon Nature Center,0002147,000011,0000110002,000013,1,TAPO,access to parking lot,981,Pasadena,91107,5th District,Altadena Dr and Veranada Ave,"118° 5' 47.208"" W","34° 10' 43.452"" N",SA,,Mapped,34.17874154,-118.09645879,22,34.1771188,-118.09707785
7261,La Canada Open Space Trail,,0002148,000019,0000190001,000018,1,TH,,1926,La Canada Flintridge,91011,5th District,E Big Briar Way and Harter Ln,"118° 11' 45.991"" W","34° 13' 24.742"" N",SA,,Mapped,34.22354443,-118.1961208,33,34.22382407,-118.19615098
7266,Altadena Crest Trail Connector,,0002524,000025,0000250001,000020,1,TH,on loma alta st,1331,Unincorporated Los Angeles County,91001,5th District,W Loma Alta Dr and Dabney Ave,"118° 9' 20.334"" W","34° 12' 7.999"" N",SA,IMG_00131463.jpg,Mapped,34.20222675,-118.15566053,42,34.20247214,-118.15633036
7269,Flint Wash Connector Trail,,0002602,000012,0000120001,,1,TAPO,from alt route,1128,La Canada Flintridge,91011,5th District,Chula Senda Ln and Woodfield Rd,"118° 11' 23.282"" W","34° 11' 42.156"" N",ST,IMG_00131596.jpg,Mapped,34.1950481,-118.18981279,24,34.19504322,-118.1898006
7274,Hastings Debris Basin Trail,,0002683,000016,0000160001,000022,1,TH,from eaton cyn golf course,1001,Unincorporated Los Angeles County,91107,5th District,Sierra Madre Villa Ave and Old House Rd,"118° 4' 48.058"" W","34° 10' 6.202"" N",SA,IMG_00131626.jpg,Mapped,34.1683942,-118.08002824,28,34.16819028,-118.0797143
7282,Altadena Crest Trail,,0002719,000001,0000010006,000021,1,TAPO,,1334,Unincorporated Los Angeles County,91001,5th District,Sunset Ridge Rd and Wildrose Canyon Ct,"118° 9' 28.616"" W","34° 12' 12.985"" N",SA,IMG_00131645.jpg,Mapped,34.20361174,-118.15796103,11,34.20352659,-118.15794077
7283,Horse Lane Trail,,0002720,000002,0000020001,,1,TH,,1191,La Canada Flintridge,91011,5th District,,"118° 10' 57.833"" W","34° 11' 47.504"" N",ST,,Mapped,34.19653387,-118.18274367,29,34.19652899,-118.18273148
7286,Flint Wash Trail,,0002726,000013,0000130001,,1,TH,,1350,La Canada Flintridge,91011,5th District,,"118° 12' 11.756"" W","34° 11' 37.756"" N",ST,IMG_00131540.jpg,Mapped,34.19382591,-118.20327767,25,34.19382104,-118.20326548
7308,Antonovich Connector Trail,,0002970,000044,0000440001,,1,TH,from public street,596,San Dimas,91724,5th District,E Puente St and E Mesarica Rd,"117° 51' 5.229"" W","34° 4' 57.464"" N",ST,IMG_00221907.jpg,Mapped,34.08263367,-117.85146451,10,34.08262879,-117.85145239
7313,Park View Trail,Frank G. Bonelli Regional Park,0003223,000029,0000290002,,1,TH,from middlecrest tr/fire rd,1102,San Dimas,91773,5th District,Via Verde and Camper View Rd,"117° 47' 33.435"" W","34° 4' 43.141"" N",N,IMG_00222094.jpg,Mapped,34.07865513,-117.79263288,46,34.07865025,-117.79262076
7319,Bonelli Trail,Frank G. Bonelli Regional Park,0003287,000004,0000040009,000002,1,TAPO,Access to 0000040008,980,San Dimas,91773,5th District,Puddingstone Dr and Van Dusen Rd,"117° 47' 21.743"" W","34° 5' 44.750"" N",SA,IMG_00222214.jpg,Mapped,34.09576869,-117.78938524,15,34.0955009,-117.78861822
7321,Van Tassel Trail,,0003343,000041,0000410001,000030,1,TH,at road,676,Azusa,91010,1st District,Van Tassel Mtwy and Fish Canyon Rd,"117° 55' 44.592"" W","34° 9' 7.530"" N",ST,IMG_00312656.jpg,Mapped,34.1520966,-117.92906542,57,34.1520966,-117.92906542
7322,Tree Line Trail,Frank G. Bonelli Regional Park,0003344,000037,0000370001,000025,1,TH,,960,San Dimas,91773,5th District,Eucalyptus Park Rd and Via Verde,"117° 48' 24.289"" W","34° 4' 44.191"" N",SA,,Mapped,34.07894685,-117.80675901,54,34.07987318,-117.80757944
7323,Kikos Trail,Frank G. Bonelli Regional Park,0003345,000018,0000180001,,1,TH,,959,San Dimas,91773,5th District,,"117° 47' 55.053"" W","34° 4' 56.763"" N",SA,,Mapped,34.08243896,-117.79863781,31,34.08243408,-117.7986257
7324,Antonovich Trail,,0003352,000003,0000030001,000026,1,TH,Eastern trailhead,897,Unincorporated Los Angeles County,91773,5th District,San Dimas Ave. and Paseo Aldeano,"117° 49' 13.013"" W","34° 5' 27.301"" N",SA,IMG_00221793.jpg,Mapped,34.09092193,-117.82029342,14,34.09112277,-117.82032156
7325,Antonovich Trail,,0003353,000003,0000030001,000027,1,TAPO,,648,Unincorporated Los Angeles County,91773,5th District,Gainsborough Rd and Valley Center Ave,"117° 49' 53.153"" W","34° 5' 31.227"" N",SA,IMG_00221815.jpg,Mapped,34.09201248,-117.83144356,14,34.0918185,-117.83260703
7326,Antonovich Trail,,0003354,000003,0000030001,000027,1,TAPO,,643,Unincorporated Los Angeles County,91773,5th District,Gainsborough Rd and Valley Center Ave,"117° 49' 59.068"" W","34° 5' 30.046"" N",SA,IMG_00221825.jpg,Mapped,34.0916844,-117.83308652,14,34.0918185,-117.83260703
7327,Schabarum San Dimas Connector Trail,,0003387,000008,0000080001,,1,TH,no existing signage,866,Unincorporated Los Angeles County,91724,5th District,Via Verde St. and E Covina Rd.,"117° 50' 13.369"" W","34° 4' 12.463"" N",ST,IMG_00242402.jpg,Mapped,34.07013344,-117.83705909,51,34.07012856,-117.83704697
7328,Bonelli Trail,Frank G. Bonelli Regional Park,0003488,000004,0000040004,000024,1,TAPO,from road,984,San Dimas,91773,5th District,Via Verde and Fisherman Park Rd,"117° 48' 29.599"" W","34° 4' 33.668"" N",SA,IMG_00222294.jpg,Mapped,34.07602376,-117.80823397,15,34.07594398,-117.80587698
7329,Bonelli Trail,,0003748,000004,0000040001,000026,1,TH,starts at MDA staging area,897,Unincorporated Los Angeles County,91773,5th District,San Dimas Ave. and Paseo Aldeano,"117° 49' 13.013"" W","34° 5' 27.301"" N",SA,IMG_00222231.jpg,Mapped,34.09092193,-117.82029342,15,34.09112277,-117.82032156
7334,Santa Susana Pass Trail,,0003923,000035,0000350001,,1,TH,undefined,1359,Unincorporated Los Angeles County,91311,5th District,,"118° 37' 0.361"" W","34° 16' 36.834"" N",ST,,Mapped,34.27690311,-118.6167793,52,34.27689825,-118.61676703
7339,Hasley Canyon Trail,,0003942,000015,0000150002,000005,1,TH,From Eq Center,1197,Unincorporated Los Angeles County,91355,5th District,Industry Dr. and Gibraltar Ln,"118° 38' 12.573"" W","34° 27' 9.341"" N",SA,,Mapped,34.45259958,-118.6368382,27,34.45197896,-118.63590644
7345,Marshall Staging Area Connector A,Marshall Canyon Park,0003952,000051,0000510001,000031,1,TAPO,access to marshall canyon from staging area,1792,Unincorporated Los Angeles County,91750,5th District,,"117° 44' 24.745"" W","34° 9' 2.718"" N",SA,IMG_000446.jpg,Mapped,34.15075977,-117.74021919,40,34.14946808,-117.74137584
7346,Marshall Staging Area Connector B,,0003953,000052,0000520001,000031,1,TAPO,access to marshall canyon and stephens ranch connector from staging area,1798,Unincorporated Los Angeles County,91750,5th District,,"117° 44' 28.391"" W","34° 9' 3.284"" N",SA,,Mapped,34.15091699,-117.74123177,41,34.14946808,-117.74137584
7347,Chaney Trail,,0003955,000005,0000050002,,1,TAPO,Intersection with paved Rd.,1768,Unincorporated Los Angeles County,91001,5th District,,"118° 8' 45.110"" W","34° 12' 35.247"" N",ST,,Mapped,34.2097956,-118.14587607,20,34.20979072,-118.14586389
7351,Vargus Trail,Frank G. Bonelli Regional Park,0003960,000038,0000380001,,1,TAPO,Fire road right,922,San Dimas,91773,5th District,,"117° 48' 52.142"" W","34° 5' 13.974"" N",ST,,Mapped,34.08721992,-117.814496,56,34.08721503,-117.81448388
7359,Canyon Trail,Placerita Canyon State Park,0004074,000031,0000310001,000004,1,TH,from nature center staging area,1536,Unincorporated Los Angeles County,91321,5th District,Placerita Canyon Rd and Running Horse Rd,"118° 28' 2.637"" W","34° 22' 38.591"" N",SA,IMG_00312658.jpg,Mapped,34.37739113,-118.46741145,16,34.37751913,-118.46861925
7362,Antonovich Trail,,0004085,000003,0000030003,000028,1,TAPO,"added in office, MK",604,San Dimas,91773,5th District,Scarborough Road and Liverpool Court,"117° 50' 46.373"" W","34° 5' 13.479"" N",SA,,Mapped,34.08708227,-117.84622697,14,34.08717773,-117.84569062
7363,Schabarum Grand Spur Trail,,0004087,000007,0000070001,,1,TH,"Added in office, MK",731,Unincorporated Los Angeles County,91724,5th District,,"117° 51' 54.934"" W","34° 3' 17.066"" N",ST,,Mapped,34.05474538,-117.86527155,49,34.05474051,-117.86525943
7370,Eaton Canyon Trail,,0004099,000011,0000110001,<Null>,1,TH,"Added in office, MK",947,Pasadena,91107,5th District,Ney York Drive and Eaton Canyon Drive,"118° 5' 44.876"" W","34° 10' 32.739"" N",ST,,Mapped,34.1757656,-118.09581117,22,34.17576072,-118.09579899
7372,Altadena Crest Trail,,0004102,000001,0000010001,,1,TH,"Added in office, MK",1268,Pasadena,91001,5th District,Pine crest Drive and the Mt Wilsona Toll road,"118° 6' 18.919"" W","34° 11' 35.162"" N",ST,,Mapped,34.19310539,-118.10526755,11,34.19310051,-118.10525538
7373,Bonelli Trail,Frank G. Bonelli Regional Park,0004108,000004,0000040005,000024,1,TAPO,from road,984,San Dimas,91773,5th District,Via Verde and Fisherman Park Rd,"117° 48' 29.599"" W","34° 4' 33.668"" N",SA,IMG_00222294.jpg,Mapped,34.07602376,-117.80823397,15,34.07594398,-117.80587698
7374,Bonelli Trail,Frank G. Bonelli Regional Park,0004109,000004,0000040008,000002,1,TAPO,Access to 0000040009,980,San Dimas,91773,5th District,Puddingstone Dr and Van Dusen Rd,"117° 47' 21.743"" W","34° 5' 44.750"" N",SA,IMG_00222214.jpg,Mapped,34.09576869,-117.78938524,15,34.0955009,-117.78861822
7375,Marshall Canyon Trail,Frank G. Bonelli Regional Park,0004110,000024,0000240001,000002,1,TH,,972,San Dimas,91773,5th District,Puddingstone Dr and Van Dusen Rd,"117° 47' 18.780"" W","34° 5' 42.905"" N",SA,,Mapped,34.09525635,-117.78856222,36,34.0955009,-117.78861822
7377,Park View Trail,Frank G. Bonelli Regional Park,0004122,000029,0000290001,,1,TH,accessible from fire road,1093,San Dimas,91773,5th District,Via Verde and Camper View Rd,"117° 47' 27.195"" W","34° 4' 41.652"" N",N,IMG_00222063.jpg,Mapped,34.07824162,-117.79089967,46,34.07823674,-117.79088755
7384,La Canada Open Space Trail,,0004138,000019,0000190002,000018,1,TAPO,,1926,La Canada Flintridge,91011,5th District,E Big Briar Way and Harter Ln,"118° 11' 45.991"" W","34° 13' 24.742"" N",SA,,Mapped,34.22354443,-118.1961208,33,34.22382407,-118.19615098
7390,Schabarum-Skyline Trail,,0003389,000036,0000360015,,1,TH,at end of mda trail,520,Covina,91724,5th District,S Oak Canyon Rd. and E Walnut Creek Rd.,"117° 52' 10.893"" W","34° 4' 32.503"" N",ST,IMG_00222297.jpg,Mapped,34.07570012,-117.86970465,53,34.07569524,-117.86969252
7402,Altadena Crest Access Trail,,0004149,000048,0000840001,,1,TAPO,From Street,1806,Altadena,91001,5th District,3336 Lake Ave,"118° 7' 50.089"" W","34° 12' 14.349"" N",ST,,Mapped,34.20399079,-118.13059242,61,34.20398591,-118.13058024
7406,Santa Anita Wash Trail,,0004151,000034,0000340000,,1,TH,,872,Arcadia,91006,5th District,Canyon Rd and Highland Oaks Dr,"118° 1' 8.290"" W","34° 10' 37.123"" N",ST,,Mapped,34.17698342,-118.01898151,47,34.17697854,-118.01896936
7407,Antonovich Oak Loop Trail,,0004152,000042,0000420001,000028,1,TAPO,"added in office, RM",604,San Dimas,91773,5th District,Scarborough Road and Liverpool Court,"117° 50' 46.373"" W","34° 5' 13.479"" N",SA,,Mapped,34.08708227,-117.84622697,12,34.08717773,-117.84569062
7408,Antonovich South Spur Trail,,0004152,000043,0000430001,,1,TAPO,from access rd. w/ st. access,615,San Dimas,91773,5th District,Edinburgh Rd and Gainsborough Rd,"117° 50' 30.479"" W","34° 5' 15.875"" N",ST,IMG_00221865.jpg,Mapped,34.08774788,-117.84181196,13,34.08717773,-117.84569062
7409,Miller Lateral Trail,,0004153,000047,0000470001,,1,TAPO,marshall Canyon to claremont loop,1855,Unincorporated Los Angeles County,91750,5th District,Stephens Ranch Rd and E Stephens Ranch Rd,"117° 44' 22.859"" W","34° 9' 7.361"" N",SA,,Mapped,34.15204957,-117.73969529,37,34.15204468,-117.73968318
7410,Marshall-Miller Connector Trail,,0004154,000046,0000460001,,1,TAPO,marshall Canyon to claremont loop,1855,Unincorporated Los Angeles County,91750,5th District,Stephens Ranch Rd and E Stephens Ranch Rd,"117° 44' 22.859"" W","34° 9' 7.361"" N",SA,,Mapped,34.15204957,-117.73969529,38,34.15204468,-117.73968318
7411,Cobalt Canyon Trail,,0004152,000045,0000450001,,1,TAPO,marshall Canyon to claremont loop,1855,Unincorporated Los Angeles County,91750,5th District,Stephens Ranch Rd and E Stephens Ranch Rd,"117° 44' 22.859"" W","34° 9' 7.361"" N",SA,,Mapped,34.15204957,-117.73969529,17,34.08717773,-117.84569062
7414,San Gabriel River Trail,Wilderness Park,0400035,000053,0000530013,040019,1,TAPO,"from wilderness park. formal to property line, then UCT.",123,Downey,90241,4th District,10999 Little Lake Rd,"118° 6' 14.168"" W","33° 56' 3.982"" N",SA,IMG_00071309.jpg,Mapped,33.9344443,-118.10394762,265,33.93535689,-118.10067171
7434,San Gabriel River Trail,Liberty Park,0400135,000053,0000530021,040020,1,TAPO,from liberty park,53,Cerritos,90703,4th District,19211 Studebaker Rd,"118° 6' 3.705"" W","33° 51' 11.287"" N",SA,IMG_00071419.jpg,Mapped,33.85314003,-118.10104138,265,33.85534106,-118.10019747
7442,San Gabriel River Trail,El Dorado Regional Park,0400200,000053,0000530025,040021,1,TAPO,vehilcle and oedestrian access from park,25,Long Beach,90808,4th District,7550 East Spring St,"118° 5' 25.665"" W","33° 48' 39.262"" N",SA,IMG_00071484.jpg,Mapped,33.81091102,-118.09047458,265,33.81111184,-118.08792846
7472,Schabarum-Skyline Trail,,0400465,000036,0000360001,040001,1,TAPO,"gate on both sides of trail, access to staging",235,Unincorporated Los Angeles County,90601,4th District,Peck Rd & Workman Mill Rd,"118° 2' 11.369"" W","34° 1' 22.176"" N",SA,IMG_000420.jpg,Mapped,34.02283164,-118.03650367,53,34.02301717,-118.03656663
7489,Schabarum-Skyline Trail,,0400785,000036,0000360005,040016,1,TAPO,from staging area,603,Unincorporated Los Angeles County,91748,4th District,Calle Barcelona & Saleroso Dr,"117° 55' 43.135"" W","33° 58' 46.475"" N",SA,IMG_0004523.jpg,Mapped,33.97958114,-117.92866086,53,33.97943371,-117.92811808
7490,Schabarum-Skyline Trail,,0400786,000036,0000360006,040016,1,TAPO,from staging area,615,Unincorporated Los Angeles County,91748,4th District,Calle Barcelona & Saleroso Dr,"117° 55' 42.291"" W","33° 58' 44.870"" N",SA,IMG_0004526.jpg,Mapped,33.97913537,-117.92842643,53,33.97943371,-117.92811808
7497,Schabarum-Skyline Trail - Azusa/Colima Connector,,0400859,000061,0000610018,040004,1,TH,starts in grass field in park,467,Unincorporated Los Angeles County,91748,4th District,Colima Rd & S Azusa Ave,"117° 55' 52.381"" W","33° 59' 24.099"" N",SA,IMG_0004603.jpg,Mapped,33.99003244,-117.93122894,270,33.99062681,-117.92976845
7498,Schabarum-Skyline Trail - Colima Parking Connector,,0400867,000062,0000620021,040004,1,TH,,478,Unincorporated Los Angeles County,91748,4th District,Colima Rd & Powder Canyon Mtwy,"117° 55' 44.029"" W","33° 59' 22.937"" N",SA,IMG_0004601.jpg,Mapped,33.98970957,-117.92890921,271,33.99062681,-117.92976845
7504,Schabarum Extension Trail,,0400987,000065,0000650001,,1,TAPO,"from cul du sac, informal access point, consider formalizing",690,Unincorporated Los Angeles County,91748,4th District,Cottontail Pl & Whippoorwill Dr,"117° 54' 58.157"" W","33° 58' 8.591"" N",ST,IMG_0006733.jpg,Mapped,33.96905798,-117.91616682,274,33.96905312,-117.91615469
7505,Rowland Heights Loop Trail - Desire Ave Connector,,0401046,000056,0000560001,<Null>,1,TH,on desire,579,Unincorporated Los Angeles County,91748,4th District,Desire Av & Old Ranch Ravine Rd,"117° 53' 30.320"" W","33° 58' 29.411"" N",ST,IMG_0007854.jpg,Mapped,33.97484133,-117.89176771,263,33.97483646,-117.89175558
7507,Rowland Heights Connector Trail,,0401050,000057,0000570001,,1,TH,on balan st,622,Unincorporated Los Angeles County,91748,4th District,Bluehaven Dr & Balan Rd,"117° 52' 30.666"" W","33° 58' 43.087"" N",ST,IMG_0007856.jpg,Mapped,33.9786402,-117.87519718,261,33.97863533,-117.87518506
7509,Rowland Heights Loop Trail,,0401084,000055,0000550001,,1,TAPO,"opening in fence, w/ curb cut. maintenance vehicle access point",583,Unincorporated Los Angeles County,91748,4th District,Pathfinder Rd & Wellesley Dr,"117° 53' 37.601"" W","33° 58' 22.879"" N",N,IMG_0007825.jpg,Mapped,33.97302688,-117.89379015,262,33.97302201,-117.89377802
7512,Rio Hondo River Trail - Florence Ave Connector,,0401118,000059,0000590001,,1,TAPO,access from florence,135,Downey,90240,4th District,E Florence Ave & Scout Ave,"118° 8' 36.720"" W","33° 57' 38.021"" N",ST,IMG_0007907.jpg,Mapped,33.96056611,-118.14354556,248,33.96056126,-118.14353339
7513,Rio Hondo River Trail - Suva St Connector,,0401124,000060,0000600001,,1,TAPO,from suva. possible to cross to other side where there is also access but there is no crosswalk,141,Downey,90240,4th District,Guatemala Ave & Suva St,"118° 8' 6.638"" W","33° 57' 53.338"" N",N,IMG_0007914.jpg,Mapped,33.96482096,-118.13518929,249,33.96481611,-118.13517713
7519,LA River Trail - Rosecrans Ave North Connector,,0401169,000067,0000670001,,1,TAPO,from rosecrans,94,Paramount,90723,4th District,Orange Ave & Rosecrans Ave,"118° 10' 51.713"" W","33° 54' 13.743"" N",N,IMG_00071050.jpg,Mapped,33.90382223,-118.18104356,179,33.90381739,-118.18103139
7520,LA River Trail - Rosecrans Ave South Connector,,0401182,000068,0000680001,,1,TAPO,from rosecrans,96,Paramount,90723,4th District,Orange Ave & Rosecrans Ave,"118° 10' 52.807"" W","33° 54' 12.683"" N",N,IMG_00071049.jpg,Mapped,33.90352799,-118.18134755,180,33.90352314,-118.18133539
7523,Los Angeles River Trail,,0401267,000066,0000660005,040007,1,TAPO,from staging area,59,Long Beach,90805,4th District,E 72nd St & Hunsaker Ave,"118° 11' 13.854"" W","33° 53' 6.764"" N",SA,IMG_0007993.jpg,Mapped,33.88521695,-118.18719384,178,33.88391358,-118.1871779
7524,Los Angeles River Trail,,0401272,000066,0000660005,040018,1,TAPO,w/ open gate. to park,53,Long Beach,90805,4th District,De Forest Ave & Harding St,"118° 11' 31.116"" W","33° 52' 8.144"" N",SA,IMG_00071018.jpg,Mapped,33.86893386,-118.19198879,178,33.86710606,-118.19219191
7531,LA River Trail - W. Del Amo North Connector,,0401435,000069,0000690001,,1,TAPO,from del amo,57,Long Beach,90805,4th District,Oregon Ave & W Del Amo Blvd,"118° 12' 8.831"" W","33° 50' 48.338"" N",N,IMG_00071137.jpg,Mapped,33.84676549,-118.20246518,181,33.84676066,-118.20245302
7532,LA River Trail - W. Del Amo South Connector,,0401446,000070,0000700001,,1,TAPO,from del amo,57,Long Beach,90810,4th District,Orgeon Ave & W Del Amo Blvd,"118° 12' 8.877"" W","33° 50' 47.410"" N",N,IMG_00071136.jpg,Mapped,33.84650761,-118.20247795,182,33.84650277,-118.20246579
7545,Los Angeles River Trail,,0401522,000066,0000660006,040018,1,TAPO,w/ open gate. to park,49,Long Beach,90805,4th District,De Forest Ave & Harding St,"118° 11' 31.475"" W","33° 52' 7.416"" N",SA,IMG_00071018.jpg,Mapped,33.86873157,-118.19208861,178,33.86710606,-118.19219191
7546,San Gabriel River Trail,,0401523,000053,0000530029,040017,1,TAPO,,8,Seal Beach,90740,4th District,1st Street and Ocean Avenue,"118° 6' 52.454"" W","33° 44' 33.083"" N",SA,IMG_00081593.jpg,Mapped,33.74252791,-118.11458263,265,33.74277278,-118.114046
7547,Los Angeles River Trail,,0401524,000066,0000660001,040006,1,TH,,89,Paramount,90723,4th District,Century Blvd & Orange Ave,"118° 10' 35.567"" W","33° 55' 4.802"" N",SA,IMG_0007917.jpg,Mapped,33.91800529,-118.17655842,178,33.91865301,-118.17547554
7549,Schabarum-Skyline Nike Missile Site Connector,,0401528,000054,0000360001,040002,1,TAPO,from road/ uct to road,1161,Unincorporated Los Angeles County,90601,4th District,Workman Mill Rd & Crossroads Pkwy,"118° 0' 52.852"" W","34° 1' 2.383"" N",,IMG_000491.jpg,Mapped,34.01733334,-118.01469337,269,34.01735799,-118.01453676
7550,Schabarum-Skyline Trail - Extension Connector,,0401529,000063,0000360006,040016,1,TAPO,from staging area,615,Unincorporated Los Angeles County,91748,4th District,Calle Barcelona & Saleroso Dr,"117° 55' 42.291"" W","33° 58' 44.870"" N",SA,IMG_0004526.jpg,Mapped,33.97913537,-117.92842643,272,33.97943371,-117.92811808
7551,Schabarum-Skyline Trail - San Gabriel Valley Over*,,0401530,000064,0000610018,040004,1,TAPO,starts in grass field in park,467,Unincorporated Los Angeles County,91748,4th District,Colima Rd & S Azusa Ave,"117° 55' 52.381"" W","33° 59' 24.099"" N",SA,IMG_0004603.jpg,Mapped,33.99003244,-117.93122894,273,33.99062681,-117.92976845
7554,Rio Hondo River Trail,,0500038,000058,0000580001,,1,TH,at santa anita,313,El Monte,91731,1st District,Santa Anita Ave and West Hondo Parkway,"118° 1' 41.742"" W","34° 5' 43.426"" N",ST,IMG_00081875.jpg,Mapped,34.09540097,-118.02827391,247,34.0953961,-118.02826176
7555,Rio Hondo River Trail - Garvey Ave Connector,,0500041,000077,0000770001,,1,TAPO,from garvey,245,Rosemead,91770,1st District,East Garvey Ave and Sullivan Ave,"118° 4' 10.318"" W","34° 3' 45.211"" N",ST,IMG_00091920.jpg,Mapped,34.06256355,-118.06954496,250,34.06255869,-118.06953281
7559,Rio Hondo River Trail,,0500163,000058,0000580005,050002,1,TAPO,from park,188,Montebello,90640,1st District,Rea Dr and Beverly Blvd,"118° 5' 16.344"" W","34° 1' 3.057"" N",SA,IMG_00092038.jpg,Mapped,34.01752063,-118.0878856,247,34.01787464,-118.09064356
7562,Schabarum-Skyline Trail,,0500195,000036,0000360001,050001,1,TAPO,from pellinier,233,City of Industry,90601,1st District,Pellissier Place and Red Hat Lane,"118° 2' 24.567"" W","34° 1' 27.945"" N",SA,IMG_00081652.jpg,Mapped,34.02443391,-118.04016956,53,34.0243084,-118.04093209
7582,Rio Hondo River Trail - Garfield Ave S Connector,,0500422,000071,0000710001,,1,TAPO,from garfield,115,South Gate,90280,1st District,Garfiled Ave and Karmont Ave,"118° 10' 5.140"" W","33° 56' 23.638"" N",ST,IMG_00102129.jpg,Mapped,33.93990426,-118.16810669,252,33.93989942,-118.16809452
7583,Rio Hondo River Trail - Garfield Ave N Connector,,0500427,000072,0000720001,,1,TAPO,from garfield,116,South Gate,90280,1st District,Garfiled Ave and Karmont Ave,"118° 10' 4.559"" W","33° 56' 24.024"" N",ST,IMG_00092121.jpg,Mapped,33.94001146,-118.16794515,253,33.94000661,-118.16793299
7584,Rio Hondo River Trail - Southern Ave S Connector,,0500431,000073,0000730001,,1,TAPO,from southern/ stewart and grey,116,South Gate,90280,1st District,Southern Ave and Karmont Ave,"118° 9' 52.111"" W","33° 56' 39.139"" N",ST,IMG_00092113.jpg,Mapped,33.94421023,-118.1644874,254,33.94420538,-118.16447524
7585,Rio Hondo River Trail - Southern Ave N Connector,,0500437,000074,0000740001,,1,TAPO,from southern,115,South Gate,90280,1st District,Southern Ave and Karmont Ave,"118° 9' 51.339"" W","33° 56' 39.847"" N",ST,IMG_00092106.jpg,Mapped,33.94440676,-118.16427301,255,33.94440191,-118.16426084
7586,Rio Hondo River Trail - Firestone Blvd Connector,,0500441,000075,0000750001,,1,TAPO,from firestone,116,South Gate,90280,1st District,Firestone Blvd and Garfield Ave,"118° 9' 37.992"" W","33° 56' 55.844"" N",ST,IMG_00092097.jpg,Mapped,33.9488505,-118.1605654,256,33.94884565,-118.16055323
7592,San Gabriel River Trail - Lario Connector,Santa Fe Dam Recreational Area,0500496,000082,0000820030,,1,TH,at staging area,590,City of Azusa,91010,1st District,East Foothill Boulevard and north Irwindale Avenue,"117° 56' 23.055"" W","34° 8' 10.951"" N",SA,IMG_00112851.jpg,Mapped,34.13638007,-117.93974966,307,34.13637519,-117.93973751
7593,San Gabriel River Trail - Eastern Bank,,0500508,000083,0000830001,,1,TH,no nearby parking,285,City of Industry,91732,1st District,Valley Boulevard and I-605,"118° 0' 23.432"" W","34° 3' 20.284"" N",ST,IMG_00112766.jpg,Mapped,34.05563929,-118.00652099,419,34.05563442,-118.00650885
7618,San Gabriel River Trail - Beverly Blvd Connector,,0500870,000087,0000870033,,1,TAPO,from beverly,197,City of Pico Rivera,90660,1st District,East Beverly Boulevard and Amberwood Avenue,"118° 4' 4.022"" W","34° 0' 24.259"" N",ST,IMG_00112695.jpg,Mapped,34.00674336,-118.06779601,318,34.0067385,-118.06778386
7619,San Gabriel River Trail - Whittier Blvd Connector,,0500873,000088,0000880034,,1,TAPO,from whittier blvd,179,City of Pico Rivera,90606,1st District,Whittier Boulevard and Esperanza Avenue,"118° 4' 18.196"" W","33° 59' 43.762"" N",ST,IMG_00112709.jpg,Mapped,33.99549439,-118.07173319,319,33.99548953,-118.07172103
7620,San Gabriel River - Schabarum Connector,Pico Rivera Bicentennial Park,0500897,000084,0000840001,,1,TH,starts at equestrian area,227,Unincorporated Los Angeles County,90660,1st District,Peck Road and Rooks Road,"118° 2' 29.058"" W","34° 1' 49.894"" N",ST,IMG_00112720.jpg,Mapped,34.03053106,-118.04141725,308,34.03052619,-118.0414051
7621,Avocado Heights Trail,,0501208,000081,0000810001,,1,TAPO,trail continues,330,Bassett,91746,1st District,845 S4th St,"117° 59' 49.655"" W","34° 1' 48.420"" N",ST,IMG_00102417.jpg,Mapped,34.03012151,-117.99713865,64,34.03011664,-117.9971265
7622,WNRA Nature Center Trail,Whittier Narrows Recreation Area,0500473,000090,0000900001,050007,1,TH,added in GIS,227,Unincorporated Los Angeles County,90660,1st District,Durfee Avenue and Pack Road,"118° 2' 40.534"" W","34° 2' 2.320"" N",SA,,Mapped,34.03398277,-118.0446048,321,34.03449706,-118.04495374
7624,San Gabriel River Trail,,0501220,000053,0000530001,000030,1,TH,junction w/ van tassell trail,676,City of Azusa,91010,1st District,,"117° 55' 44.592"" W","34° 9' 7.530"" N",ST,IMG_00102455.jpg,Mapped,34.1520966,-117.92906542,265,34.1520966,-117.92906542
7625,San Gabriel River Trail - Siphon Road BP Connector,,0501225,000086,0000530003,,1,TAPO,"from street, open gate",243,Unincorporated Los Angeles County,91733,1st District,Peck Road and Durfee Avenue,"118° 2' 16.278"" W","34° 2' 5.069"" N",ST,IMG_00112615.jpg,Mapped,34.03474626,-118.03786726,317,34.0347414,-118.03785511
7626,Rio Hondo River Trail - Whittier Narrows Connector,,0501221,000076,0000770001,,1,TAPO,from garvey,245,Rosemead,91770,1st District,East Garvey Ave and Sullivan Ave,"118° 4' 10.318"" W","34° 3' 45.211"" N",ST,IMG_00091920.jpg,Mapped,34.06256355,-118.06954496,251,34.06255869,-118.06953281
7627,Rio Hondo San Gabriel River Trail Connector,,0501222,000078,0000770001,,1,TAPO,from garvey,245,Rosemead,91770,1st District,East Garvey Ave and Sullivan Ave,"118° 4' 10.318"" W","34° 3' 45.211"" N",ST,IMG_00091920.jpg,Mapped,34.06256355,-118.06954496,257,34.06255869,-118.06953281
7628,San Jose Creek Trail,,0501223,000089,0000830001,,1,TAPO,,255,City of Industry,91732,1st District,Valley Boulevard and I-605,"118° 1' 30.046"" W","34° 2' 18.329"" N",ST,IMG_00112766.jpg,Mapped,34.0384296,-118.02502482,320,34.03842474,-118.02501267
7629,San Gabriel River Trail - Rush Street Extension,,0501224,000085,0000530002,,1,TAPO,"from alley to right, opening in fence to bike/ped to left",278,City of Industry,91732,1st District,Magnolia Street and Parkway Drive,"118° 0' 36.312"" W","34° 3' 4.705"" N",ST,IMG_00112590.jpg,Mapped,34.05131191,-118.01009876,309,34.05130704,-118.01008661
7630,92 Trail,CA State Parks - Topanga,0100001,010002,0100020000,,1,TAPO,Auto Generated and Verified,1158,Unincorporated Los Angeles County,90290,3rd District,21042 Entrada Rd,"118° 35' 32.679"" W","34° 5' 31.373"" N",ST,,Mapped,34.09205297,-118.59242306,59,34.09204813,-118.59241081
7632,Agoura Equestrian Center Connector Trail,National Parks Service,0200004,020002,0200020000,020051,1,TH,Auto Generated and Verified,1011,Unincorporated Los Angeles County,91301,3rd District,Cheseboro Canyon Rd and Cheseboro Road,"118° 43' 50.974"" W","34° 9' 23.571"" N",SA,,Mapped,34.15655231,-118.73083841,60,34.15611327,-118.73114169
7633,Amy Way Trail,CA State Parks - Topanga,0100006,010003,0100030000,,1,TAPO,Auto Generated and Verified,1304,Los Angeles,90290,3rd District,298 Amy Way,"118° 35' 25.972"" W","34° 5' 18.179"" N",ST,,Mapped,34.08838793,-118.59056012,62,34.08838309,-118.59054788
7634,Ann Skager Trail,CA State Parks - Malibu Creek,0100010,010004,0100040000,010012,1,TAPO,Auto Generated and Verified,540,Unincorporated Los Angeles County,91302,3rd District,27371 Waycross Dr,"118° 42' 51.740"" W","34° 5' 46.766"" N",SA,,Mapped,34.09632877,-118.71438438,63,34.09681547,-118.71614763
7635,Arroyo Sequit Entrance Road,National Parks Service,0200012,020003,0200030000,020020,1,TH,Auto Generated and Verified,1095,Unincorporated Los Angeles County,90265,3rd District,34136 Mulholland Hwy,"118° 53' 26.971"" W","34° 5' 21.101"" N",SA,,Mapped,34.08919965,-118.89083761,326,34.0890167,-118.89071355
7636,Arroyo Sequit Loop Trail,National Parks Service,0200013,020004,0200040000,020020,1,TH,Auto Generated and Verified,1156,Unincorporated Los Angeles County,90265,3rd District,34136 Mullholland Hwy,"118° 53' 27.416"" W","34° 5' 10.637"" N",SA,,Mapped,34.08629292,-118.89096112,327,34.0890167,-118.89071355
7637,Arroyo Sequit Loop Trail,National Parks Service,0200014,020004,0200040000,020020,1,TH,Auto Generated and Verified,1156,Unincorporated Los Angeles County,90265,3rd District,34136 Mullholland Hwy,"118° 53' 24.539"" W","34° 5' 11.647"" N",SA,,Mapped,34.08657347,-118.89016199,327,34.0890167,-118.89071355
7638,Backbone Trail - Connector,National Parks Service,0200019,020005,0200050000,,1,TH,Confirmed with NPS data points,1576,Unincorporated Los Angeles County,90265,3rd District,1129 S Kanan Dume Rd,"118° 49' 4.924"" W","34° 4' 43.344"" N",ST,,Mapped,34.07871162,-118.81804678,328,34.0787068,-118.81803449
7639,Backbone Trail - Encinal to Mulholland,National Parks Service,0200027,020007,0200070000,020067,1,TH,Auto Generated and Verified,1397,Unincorporated Los Angeles County,90265,3rd District,1063 Encinal Canyon Rd,"118° 51' 41.301"" W","34° 5' 6.322"" N",SA,,Mapped,34.08509415,-118.86148466,69,34.08530284,-118.86248446
7642,Backbone Trail - Fossil Ridge,CA State Parks - Topanga,0100031,010009,0100090000,020017,1,TAPO,Auto Generated and Verified,2397,Unincorporated Los Angeles County,90290,3rd District,24745 Saddle Peak Rd,"118° 38' 38.761"" W","34° 4' 55.354"" N",SA,,Mapped,34.08204765,-118.64411248,71,34.08128521,-118.6455619
7643,Backbone Trail - Fossil Ridge,CA State Parks - Topanga,0100032,010009,0100090000,010016,1,TAPO,Auto Generated and Verified,2353,Unincorporated Los Angeles County,90290,3rd District,23809 Saddle Peak Rd,"118° 38' 9.252"" W","34° 5' 1.826"" N",SA,,Mapped,34.08384526,-118.63591572,71,34.0838348,-118.63615956
7644,Backbone Trail - Hondo Canyon Trail,CA State Parks - Topanga,0100033,010010,0100100000,010016,1,TAPO,Auto Generated and Verified,2353,Unincorporated Los Angeles County,90290,3rd District,23809 Saddle Peak Rd,"118° 38' 9.252"" W","34° 5' 1.826"" N",SA,,Mapped,34.08384526,-118.63591572,72,34.0838348,-118.63615956
7645,Backbone Trail - Hondo Canyon Trail,CA State Parks - Topanga,0100034,010010,0100100000,,1,TH,Auto Generated and Verified,790,Unincorporated Los Angeles County,90290,3rd District,325 Old Topanga Canyon Rd,"118° 36' 33.101"" W","34° 5' 34.934"" N",ST,,Mapped,34.09304197,-118.60920706,72,34.09303713,-118.6091948
7646,Backbone Trail - Latigo Canyon,National Parks Service,0200037,020010,0200100000,020016,1,TH,Confirmed with NPS data points,2044,Unincorporated Los Angeles County,90265,3rd District,1770 Latigo Canyon Rd,"118° 47' 38.055"" W","34° 4' 40.449"" N",SA,,Mapped,34.07790737,-118.79391645,74,34.07805922,-118.79375099
7647,Backbone Trail - Lower Betty Rogers,CA State Parks - Will Rogers,0100039,010012,0100120000,010006,1,TAPO,Auto Generated and Verified,426,Los Angeles,90272,3rd District,1666 Will Rogers State Park Rd,"118° 30' 47.379"" W","34° 3' 15.486"" N",SA,,Mapped,34.0543065,-118.51317308,75,34.05390543,-118.51161491
7648,Backbone Trail - Upper Solstice Canyon,CA State Parks - Malibu Creek,0100041,030004,0100140000,010008,1,TH,Auto Generated and Verified,1992,Unincorporated Los Angeles County,90265,3rd District,Castro Peak Mtwy,"118° 45' 30.218"" W","34° 4' 55.211"" N",SA,,Mapped,34.08200797,-118.75840606,88,34.08202331,-118.75840519
7649,Backbone Trail - Mulholland to Etz Meloy,National Parks Service,0200045,020011,0200110000,,1,TAPO,Auto Generated and Verified,1622,Unincorporated Los Angeles County,90265,3rd District,33286 Mulholland Hwy,"118° 52' 1.657"" W","34° 5' 29.967"" N",ST,,Mapped,34.09166241,-118.86713927,77,34.09165759,-118.86712697
7650,Backbone Trail - Newton Canyon,National Parks Service,0200049,020012,0200120000,020015,1,TH,Confirmed with NPS data points,1540,Unincorporated Los Angeles County,90265,3rd District,1701 S Kanan Dume Rd,"118° 48' 57.340"" W","34° 4' 34.051"" N",SA,,Mapped,34.07613002,-118.81594009,79,34.07597932,-118.81541283
7651,Backbone Trail - Newton Canyon,National Parks Service,0200050,020012,0200120000,020016,1,TH,Confirmed with NPS data points,2044,Unincorporated Los Angeles County,90265,3rd District,1770 Latigo Canyon Rd,"118° 47' 38.055"" W","34° 4' 40.449"" N",SA,,Mapped,34.07790737,-118.79391645,79,34.07805922,-118.79375099
7652,Backbone Trail - Topanga School Trail,CA State Parks - Topanga,0100051,010016,0100160000,,1,TH,Auto Generated and Verified,790,Unincorporated Los Angeles County,90290,3rd District,325 Old Topanga Canyon Rd,"118° 36' 33.101"" W","34° 5' 34.934"" N",ST,,Mapped,34.09304197,-118.60920706,86,34.09303713,-118.6091948
7653,Backbone Trail - Dead Horse Trail,CA State Parks - Topanga,0100056,010007,0100070000,010011,1,TAPO,Auto Generated and Verified,851,Unincorporated Los Angeles County,90290,3rd District,21943 Entrada Rd,"118° 36' 3.150"" W","34° 5' 40.260"" N",SA,,Mapped,34.0945216,-118.60088718,67,34.09459087,-118.60100712
7654,Backbone Trail - Piuma Connector Trail,National Parks Service,0100061,010017,0200140000,010007,1,TAPO,Auto Generated and Verified,500,Unincorporated Los Angeles County,91302,3rd District,,"118° 42' 15.250"" W","34° 4' 48.638"" N",SA,,Mapped,34.08018216,-118.70424849,80,34.08008515,-118.70381667
7656,Backbone Trail - Piuma Ridge,CA State Parks - Malibu Creek,0100064,010018,0100180000,020068,1,TH,Auto Generated and Verified,463,Unincorporated Los Angeles County,91302,3rd District,26278 Piuma Rd,"118° 42' 12.114"" W","34° 4' 54.477"" N",SA,,Mapped,34.08180404,-118.70337732,81,34.08204647,-118.70431305
7658,Backbone Trail - Saddle Peak,CA State Parks - Malibu Creek,0300070,030002,0300020000,020017,1,TH,Auto Generated and Verified,2374,Unincorporated Los Angeles County,90290,3rd District,24839 Saddle Peak Rd,"118° 38' 42.252"" W","34° 4' 52.556"" N",SA,,Mapped,34.08127044,-118.64508228,84,34.08128521,-118.6455619
7659,Backbone Trail - Topanga Ridge Motorway,National Parks Service,0200073,020016,0200160000,020017,1,TH,Auto Generated and Verified,2374,Unincorporated Los Angeles County,90290,3rd District,24839 Saddle Peak Rd,"118° 38' 42.252"" W","34° 4' 52.556"" N",SA,,Mapped,34.08127044,-118.64508228,329,34.08128521,-118.6455619
7660,Backbone Trail - Topanga Ridge Motorway,National Parks Service,0200074,020016,0200160000,020017,1,TAPO,Auto Generated and Verified,2397,Unincorporated Los Angeles County,90290,3rd District,24745 Saddle Peak Rd,"118° 38' 38.761"" W","34° 4' 55.354"" N",SA,,Mapped,34.08204765,-118.64411248,329,34.08128521,-118.6455619
7661,Backbone Trail - Trancas Canyon,CA State Parks - Malibu Creek,0300075,030003,0300030000,020067,1,TH,Auto Generated and Verified,1397,Unincorporated Los Angeles County,90265,3rd District,1063 Encinal Canyon Rd,"118° 51' 41.301"" W","34° 5' 6.322"" N",SA,,Mapped,34.08509415,-118.86148466,87,34.08530284,-118.86248446
7664,Backbone Trail - Upper Solstice Canyon,CA State Parks - Malibu Creek,0300080,030004,0300040000,010008,1,TH,Auto Generated and Verified,1992,Unincorporated Los Angeles County,90265,3rd District,Castro Peak Mtwy,"118° 45' 30.218"" W","34° 4' 55.211"" N",SA,,Mapped,34.08200797,-118.75840606,88,34.08202331,-118.75840519
7665,Backbone Trail - Zuma Canyon,National Parks Service,0200084,020019,0200190000,020015,1,TH,Confirmed with NPS data points,1540,Unincorporated Los Angeles County,90265,3rd District,1701 S Kanan Dume Rd,"118° 48' 57.340"" W","34° 4' 34.051"" N",SA,,Mapped,34.07613002,-118.81594009,90,34.07597932,-118.81541283
7666,Backdrop Trail,National Parks Service,0200087,020021,0200210000,020034,1,TAPO,Auto Generated and Verified,836,Unincorporated Los Angeles County,91301,3rd District,2900 Cornell Rd,"118° 45' 41.766"" W","34° 7' 11.847"" N",SA,,Mapped,34.11996225,-118.76161382,331,34.115627,-118.75482105
7667,Barn Service Road,CA State Parks - Will Rogers,0100090,010026,0100260000,010006,1,TAPO,Auto Generated and Verified,429,Los Angeles,90272,3rd District,1798 Will Rogers State Park Rd,"118° 30' 41.537"" W","34° 3' 16.319"" N",SA,,Mapped,34.05453782,-118.5115503,92,34.05390543,-118.51161491
7668,Beverly Drive -Franklin Canyon Connector Trail,National Parks Service,0200101,020022,0200220000,,1,TAPO,Auto Generated and Verified,809,Unincorporated Los Angeles County,90210,3rd District,2054 N Beverly Dr,"118° 25' 1.583"" W","34° 6' 31.079"" N",ST,,Mapped,34.10863802,-118.41711857,98,34.10863316,-118.41710635
7671,Botany Trail,National Parks Service,0200120,020025,0200250000,020011,1,TAPO,Auto Generated and Verified,1326,Unincorporated Los Angeles County,90265,3rd District,Carmichael Rd,"118° 52' 46.292"" W","34° 3' 28.965"" N",SA,,Mapped,34.05805072,-118.87953786,332,34.05878327,-118.87961425
7673,Calabasas - Cold Creek Trail,National Parks Service,0200133,020030,0200300000,,1,TAPO,Auto Generated and Verified,726,Unincorporated Los Angeles County,91302,3rd District,1401 Cold Canyon Rd,"118° 40' 47.511"" W","34° 5' 32.779"" N",ST,,Mapped,34.09244337,-118.67987643,108,34.09243854,-118.67986416
7675,Calabasas Peak Motorway,National Parks Service,0200135,020031,0200310000,,1,TH,Auto Generated and Verified,1252,Unincorporated Los Angeles County,91302,3rd District,1658 Stunt Rd,"118° 38' 58.293"" W","34° 5' 43.081"" N",ST,,Mapped,34.09530499,-118.64953823,109,34.09530015,-118.64952597
7677,California Coastal Trail,National Parks Service,0200137,010187,0101870000,,1,TAPO,Auto Generated and Verified,6,Malibu,90265,3rd District,29377 Cliffside Drive,"118° 48' 18.315"" W","34° 0' 8.680"" N",ST,,Mapped,34.00241601,-118.80509988,110,34.00241119,-118.80508761
7678,California Coastal Trail,National Parks Service,0200138,010187,0101870000,020071,1,TAPO,Auto Generated and Verified,25,Los Angeles,90272,3rd District,17301 Pacific Coast Hwy,"118° 33' 20.905"" W","34° 2' 17.181"" N",SA,,Mapped,34.03811072,-118.55581916,110,34.03815093,-118.55478982
7679,California Coastal Trail,National Parks Service,0200140,010187,0101870000,020002,1,TAPO,Auto Generated and Verified,25,Malibu,90265,3rd District,Westward Beach Rd,"118° 48' 30.061"" W","34° 0' 7.803"" N",SA,,Mapped,34.00217237,-118.80836255,110,34.00473173,-118.81062717
7680,California Coastal Trail,National Parks Service,0200142,010187,0101870000,020069,1,TAPO,Auto Generated and Verified,28,Unincorporated Los Angeles County,90265,3rd District,36424 Pacific Coast Hwy,"118° 56' 17.146"" W","34° 2' 39.361"" N",SA,,Mapped,34.04427179,-118.93810855,110,34.04517459,-118.94141246
7682,Castro Motorway,CA State Parks - Malibu Creek,0300151,030006,0300060004,010008,1,TH,Auto Generated and Verified,1992,Unincorporated Los Angeles County,90265,3rd District,Castro Peak Mtwy,"118° 45' 30.218"" W","34° 4' 55.211"" N",SA,,Mapped,34.08200797,-118.75840606,113,34.08202331,-118.75840519
7684,Charmichael Knob Trail,National Parks Service,0200161,020036,0200360000,020011,1,TAPO,Auto Generated and Verified,1394,Unincorporated Los Angeles County,90265,3rd District,Carmichael Rd,"118° 52' 48.944"" W","34° 3' 20.241"" N",SA,,Mapped,34.05562738,-118.88027452,335,34.05878327,-118.87961425
7685,Charmichael Knob Trail,National Parks Service,0200162,020036,0200360000,020011,1,TAPO,Auto Generated and Verified,1333,Malibu,90265,3rd District,Encinal Canyon Road and Carmichael Road,"118° 52' 47.387"" W","34° 3' 15.891"" N",SA,,Mapped,34.05441893,-118.8798419,335,34.05878327,-118.87961425
7686,Charmichael Road,National Parks Service,0200164,020037,0200370000,020011,1,TH,Auto Generated and Verified,1326,Unincorporated Los Angeles County,90265,3rd District,2619 Encinal Canyon Rd,"118° 52' 45.098"" W","34° 3' 30.079"" N",SA,,Mapped,34.05836011,-118.87920613,336,34.05878327,-118.87961425
7687,Cheeseboro Canyon Trail,National Parks Service,0200166,020038,0200380000,020051,1,TH,Auto Generated and Verified,1011,Unincorporated Los Angeles County,91301,3rd District,Cheseboro Canyon Rd and Cheseboro Road,"118° 43' 50.974"" W","34° 9' 23.571"" N",SA,,Mapped,34.15655231,-118.73083841,337,34.15611327,-118.73114169
7688,Chumash Indian Trail,National Parks Service,0200169,020040,0200400000,,1,TH,Auto Generated and Verified,126,Malibu,90265,3rd District,6357 Sea Star Drive,"118° 50' 21.073"" W","34° 2' 1.550"" N",ST,,Mapped,34.03376859,-118.83919916,118,34.03376377,-118.83918688
7689,Cii Debora Spur Trail,CA State Parks - Topanga,0100172,020041,0200410000,020013,1,TAPO,Auto Generated and Verified,1544,Los Angeles,90272,3rd District,16701 Via la Costa,"118° 32' 46.277"" W","34° 4' 34.674"" N",SA,,Mapped,34.0763032,-118.54620041,119,34.07641027,-118.54637966
7690,Cistern Trail,CA State Parks - Malibu Creek,0100174,010046,0100460000,,1,TAPO,Auto Generated and Verified,1015,Unincorporated Los Angeles County,91302,3rd District,27637 Mulholland Hwy,"118° 43' 54.111"" W","34° 6' 19.021"" N",ST,,Mapped,34.10528844,-118.73170987,120,34.1052836,-118.7316976
7691,Clark Ranch Road,National Parks Service,0200176,020042,0200420000,020067,1,TH,Auto Generated and Verified,1378,Unincorporated Los Angeles County,90265,3rd District,1091 Encinal Canyon Rd,"118° 51' 45.931"" W","34° 5' 8.190"" N",SA,,Mapped,34.08561311,-118.86277104,121,34.08530284,-118.86248446
7692,Cold Creek Trail,National Parks Service,0200181,020045,0200450000,,1,TAPO,Auto Generated and Verified,1005,Unincorporated Los Angeles County,91302,3rd District,2121 McKain St,"118° 39' 27.568"" W","34° 5' 56.532"" N",ST,,Mapped,34.09904147,-118.65767,123,34.09903663,-118.65765774
7693,Coyote Canyon Trail,National Parks Service,0200187,020048,0200480000,020034,1,TAPO,Auto Generated and Verified,756,Unincorporated Los Angeles County,91301,3rd District,Paramount Ranch Rd,"118° 45' 25.762"" W","34° 6' 56.859"" N",SA,,Mapped,34.11579905,-118.75716839,341,34.115627,-118.75482105
7696,Crags Road,CA State Parks - Malibu Creek,0100191,010048,0100480000,010012,1,TAPO,Auto Generated and Verified,540,Unincorporated Los Angeles County,91302,3rd District,1670 Las Virgenes Rd,"118° 42' 51.740"" W","34° 5' 46.766"" N",SA,,Mapped,34.09632877,-118.71438438,124,34.09681547,-118.71614763
7697,Crags Road,CA State Parks - Malibu Creek,0100192,010048,0100480033,,1,TAPO,Auto Generated and Verified,774,Unincorporated Los Angeles County,91301,3rd District,28902 Crags Dr,"118° 45' 16.016"" W","34° 6' 8.774"" N",ST,,Mapped,34.10244193,-118.75446119,124,34.1024371,-118.75444892
7698,Deer Grass Trail,National Parks Service,0200203,020051,0200510001,,1,TH,Auto Generated and Verified,1098,Unincorporated Los Angeles County,91302,3rd District,2002 Stunt Rd,"118° 39' 14.264"" W","34° 6' 0.599"" N",ST,,Mapped,34.10017112,-118.65397436,309,34.10016628,-118.6539621
7699,Discovery Trail,National Parks Service,0200211,020053,0200530000,020026,1,TAPO,Auto Generated and Verified,610,Unincorporated Los Angeles County,90210,3rd District,1648 Lake Dr,"118° 24' 55.003"" W","34° 6' 22.786"" N",SA,,Mapped,34.10633431,-118.41529091,131,34.10680137,-118.4151062
7700,Discovery Trail,National Parks Service,0200212,020053,0200530000,020026,1,TAPO,Auto Generated and Verified,635,Unincorporated Los Angeles County,90210,3rd District,1824 Lake Dr,"118° 24' 55.690"" W","34° 6' 31.933"" N",SA,,Mapped,34.1088751,-118.41548164,131,34.10680137,-118.4151062
7701,Dome Trail,CA State Parks - Topanga,0100214,010056,0100560000,010011,1,TAPO,Auto Generated and Verified,851,Unincorporated Los Angeles County,90290,3rd District,21943 Entrada Rd,"118° 36' 3.150"" W","34° 5' 40.260"" N",SA,,Mapped,34.0945216,-118.60088718,132,34.09459087,-118.60100712
7702,Dorothy Drive,National Parks Service,0200215,020054,0200540000,020018,1,TH,Auto Generated and Verified,471,Unincorporated Los Angeles County,91302,3rd District,Piuma Road and Malibu Canyon Rd,"118° 42' 22.891"" W","34° 4' 57.682"" N",SA,,Mapped,34.08269423,-118.70637079,133,34.08296648,-118.70554765
7703,Dorothy Drive,National Parks Service,0200218,020054,0200540003,020018,1,TAPO,Auto Generated and Verified,502,Unincorporated Los Angeles County,91302,3rd District,911 Las Virgenes Rd,"118° 42' 17.928"" W","34° 5' 0.612"" N",SA,,Mapped,34.08350828,-118.70499218,133,34.08296648,-118.70554765
7705,Dume Canyon Motorway,National Parks Service,0200225,020055,0200550000,,1,TAPO,Confirmed with NPS data points,1126,Unincorporated Los Angeles County,90265,3rd District,2998 S Kanan Dume Rd,"118° 47' 54.258"" W","34° 3' 22.376"" N",ST,,Mapped,34.05622044,-118.79841735,134,34.05621562,-118.79840507
7708,East Meadow Trail,National Parks Service,0200232,020056,0200560000,020011,1,TAPO,Auto Generated and Verified,1268,Malibu,90265,3rd District,3620 Noranda Ln,"118° 52' 40.217"" W","34° 3' 14.320"" N",SA,,Mapped,34.05398272,-118.8778504,343,34.05878327,-118.87961425
7709,East Topanga Fire Road,CA State Parks - Topanga,0100233,010059,0100590000,,1,TH,Auto Generated and Verified,630,Los Angeles,90272,3rd District,865 Paseo Miramar,"118° 33' 25.502"" W","34° 3' 2.535"" N",ST,,Mapped,34.05070897,-118.55709606,137,34.05070413,-118.55708382
7710,East Topanga Fire Road,CA State Parks - Topanga,0100234,010059,0100590013,010010,1,TAPO,Auto Generated and Verified,1191,Los Angeles,90290,3rd District,20800 Entrada Rd,"118° 35' 14.307"" W","34° 5' 36.085"" N",SA,,Mapped,34.09336192,-118.58731966,137,34.09327604,-118.58832337
7712,Ed Edelman North Loop Trail,National Parks Service,0200237,020058,0200580000,020041,1,TH,Auto Generated and Verified,1300,Unincorporated Los Angeles County,90290,3rd District,2747 N Topanga Canyon Blvd,"118° 35' 55.793"" W","34° 7' 38.513"" N",SA,,Mapped,34.12736966,-118.59884359,138,34.12741419,-118.59858979
7713,El Medio Connector,CA State Parks - Topanga,0100251,010062,0100620000,,1,TAPO,Auto Generated and Verified,555,Los Angeles,90272,3rd District,1210 El Medio Ave,"118° 32' 1.424"" W","34° 3' 19.012"" N",ST,,Mapped,34.05528597,-118.53374106,140,34.05528113,-118.53372882
7714,Entrada Connector Trail,CA State Parks - Topanga,0100256,010063,0100630000,010011,1,TAPO,Auto Generated and Verified,851,Unincorporated Los Angeles County,90290,3rd District,21943 Entrada Rd,"118° 36' 3.150"" W","34° 5' 40.260"" N",SA,,Mapped,34.0945216,-118.60088718,141,34.09459087,-118.60100712
7715,Farmer Ridge Fire Road,CA State Parks - Topanga,0100257,010064,0100640000,,1,TH,Auto Generated and Verified,1560,Los Angeles,90272,3rd District,18664 Mulholland Dr,"118° 32' 31.322"" W","34° 7' 39.220"" N",ST,,Mapped,34.12756597,-118.54204606,142,34.12756112,-118.54203381
7716,Fire Road Twenty-nine,National Parks Service - Topanga,0200263,020062,0200620000,,1,TH,Auto Generated and Verified,1595,Los Angeles,91356,3rd District,3001 Reseda Blvd,"118° 33' 11.363"" W","34° 7' 52.675"" N",ST,,Mapped,34.13130356,-118.55316856,346,34.13129871,-118.55315632
7717,Glade Trail,CA State Parks - Topanga,0101286,020063,0100700000,020024,1,TH,Confirmed with NPS data points,1709,Unincorporated Los Angeles County,90265,3rd District,31520 Mulholland Hwy,"118° 48' 50.706"" W","34° 5' 49.412"" N",SA,,Mapped,34.09706364,-118.81409729,347,34.09697274,-118.81415234
7718,Glen Spur Trail,CA State Parks - Topanga,0100274,010071,0100710000,010011,1,TAPO,Auto Generated and Verified,851,Unincorporated Los Angeles County,90290,3rd District,21943 Entrada Rd,"118° 36' 3.150"" W","34° 5' 40.260"" N",SA,,Mapped,34.09452162,-118.60088719,148,34.09459087,-118.60100712
7719,Glen Trail,CA State Parks - Topanga,0100276,010072,0100720000,010011,1,TH,Auto Generated and Verified,848,Unincorporated Los Angeles County,90290,3rd District,21943 Entrada Rd,"118° 36' 2.683"" W","34° 5' 41.192"" N",SA,,Mapped,34.09478028,-118.60075762,149,34.09459087,-118.60100712
7720,Grassland Trail,CA State Parks - Malibu Creek,0100280,010074,0100740000,,1,TH,Auto Generated and Verified,584,Unincorporated Los Angeles County,91302,3rd District,26951 Mulholland Hwy,"118° 42' 49.760"" W","34° 6' 12.568"" N",ST,,Mapped,34.10349595,-118.71383463,151,34.10349111,-118.71382236
7721,Hacienda Trail,National Parks Service,0200286,020064,0200640000,020034,1,TAPO,Auto Generated and Verified,773,Unincorporated Los Angeles County,91301,3rd District,Paramount Ranch Drive and Cornell Road,"118° 45' 27.563"" W","34° 6' 59.910"" N",SA,,Mapped,34.11664663,-118.75766873,348,34.115627,-118.75482105
7723,Hastain Trail,National Parks Service,0200294,020065,0200650000,020028,1,TH,Auto Generated and Verified,676,Unincorporated Los Angeles County,90210,3rd District,1999 Lake Dr,"118° 24' 54.614"" W","34° 6' 41.611"" N",SA,,Mapped,34.11156355,-118.4151829,154,34.11136488,-118.41509929
7724,Hastain Trail Connector,National Parks Service,0200295,020066,0200660000,020026,1,TAPO,Auto Generated and Verified,623,Unincorporated Los Angeles County,90210,3rd District,1748 Lake Dr,"118° 24' 55.838"" W","34° 6' 27.941"" N",SA,,Mapped,34.10776616,-118.41552265,155,34.10680137,-118.4151062
7726,Henry Ridge Motorway,CA State Parks - Topanga,0100300,010077,0100770000,,1,TAPO,Auto Generated and Verified,1210,Unincorporated Los Angeles County,90290,3rd District,21998 Gold Stone Rd,"118° 36' 30.174"" W","34° 5' 46.486"" N",ST,,Mapped,34.09625097,-118.60839406,156,34.09624613,-118.6083818
7727,Hillside Drive Connector Trail,CA State Parks - Topanga,0100306,010080,0100800000,,1,TAPO,Auto Generated and Verified,1125,Unincorporated Los Angeles County,90290,3rd District,20610 Hillside Dr,"118° 35' 12.821"" W","34° 5' 58.992"" N",ST,,Mapped,34.09972497,-118.58690706,158,34.09972013,-118.58689481
7728,Hondo Canyon Trail Connector,CA State Parks - Topanga,0100307,010081,0100810000,,1,TH,Auto Generated and Verified,2355,Unincorporated Los Angeles County,90290,3rd District,23809 Saddle Peak Rd,"118° 38' 9.658"" W","34° 5' 1.307"" N",ST,,Mapped,34.08370135,-118.63602833,159,34.08369651,-118.63601608
7730,Juan Bautista de Anza National Historic Trail,National Parks Service,0200334,020069,0200690000,,1,TH,Auto Generated and Verified,912,Unincorporated Los Angeles County,91307,3rd District,24440 Vanowen St,"118° 39' 30.486"" W","34° 11' 42.846"" N",ST,,Mapped,34.19523985,-118.65848069,350,34.19523501,-118.65846842
7731,Jungle Trail,National Parks Service,0200335,020070,0200700000,,1,TAPO,Auto Generated and Verified,809,Unincorporated Los Angeles County,91301,3rd District,3619 Cornell Rd,"118° 44' 59.755"" W","34° 7' 31.068"" N",ST,,Mapped,34.12530143,-118.7499441,351,34.1252966,-118.74993182
7732,Kanan - Edison Road,National Parks Service,0200338,020071,0200710000,,1,TAPO,Confirmed with NPS data points,1126,Unincorporated Los Angeles County,90265,3rd District,2998 S Kanan Dume Rd,"118° 47' 54.258"" W","34° 3' 22.376"" N",ST,,Mapped,34.05622044,-118.79841735,352,34.05621562,-118.79840507
7733,King Gillette Fire Road,CA State Parks - Malibu Creek,0100344,010089,0100890000,020025,1,TH,Auto Generated and Verified,658,Unincorporated Los Angeles County,91302,3rd District,Mullholland Highway and Stokes Canyon Rd,"118° 42' 9.218"" W","34° 5' 59.468"" N",SA,,Mapped,34.09985715,-118.70257291,164,34.10256266,-118.70372858
7734,Las Lomas,CA State Parks - Topanga,0100345,010090,0100900000,,1,TAPO,Auto Generated and Verified,470,Los Angeles,90272,3rd District,1228 Las Lomas Pl,"118° 32' 4.675"" W","34° 3' 19.088"" N",ST,,Mapped,34.05530697,-118.53464406,165,34.05530213,-118.53463182
7735,Las Virgenes Trail,CA State Parks - Malibu Creek,0100347,010091,0100910000,,1,TH,Auto Generated and Verified,610,Unincorporated Los Angeles County,91302,3rd District,2521 Lad Virgenes Rd,"118° 42' 50.981"" W","34° 6' 32.190"" N",ST,,Mapped,34.10894653,-118.71417366,166,34.10894169,-118.71416139
7736,Las Virgenes Trail,CA State Parks - Malibu Creek,0100348,010091,0100910000,020051,1,TH,Auto Generated and Verified,697,Calabasas,91301,3rd District,3713 Lost Hills Rd,"118° 42' 24.455"" W","34° 7' 35.575"" N",SA,,Mapped,34.12655341,-118.70680531,166,34.15611327,-118.73114169
7737,Las Virgenes View Trail,National Parks Service,0200349,020073,0200730000,020025,1,TH,Auto Generated and Verified,602,Calabasas,91302,3rd District,26885 Mulholland Hwy,"118° 42' 40.167"" W","34° 6' 15.056"" N",SA,,Mapped,34.10418717,-118.71116974,167,34.10256266,-118.70372858
7738,Leacock Memorial Trail,CA State Parks - Topanga,0100354,010092,0100920000,,1,TAPO,Auto Generated and Verified,818,Los Angeles,90272,3rd District,2121 McKain St,"118° 32' 28.106"" W","34° 3' 44.476"" N",ST,,Mapped,34.06235929,-118.54115271,168,34.06235445,-118.54114048
7739,Leo Carrillo Bluff Trail,CA State Parks - Leo Carrillo,0100366,010093,0100930000,010005,1,TAPO,Auto Generated and Verified,8,Unincorporated Los Angeles County,90265,3rd District,35998 Pacific Coast Hwy,"118° 56' 4.494"" W","34° 2' 39.932"" N",SA,,Mapped,34.04443029,-118.93459393,169,34.0460351,-118.93371838
7740,Leo Carrillo Bluff Trail,CA State Parks - Leo Carrillo,0100367,010093,0100930000,020069,1,TAPO,Auto Generated and Verified,28,Unincorporated Los Angeles County,90265,3rd District,36424 Pacific Coast Hwy,"118° 56' 17.146"" W","34° 2' 39.361"" N",SA,,Mapped,34.04427179,-118.93810855,169,34.04517459,-118.94141246
7741,Leo Carrillo Bluff Trail,CA State Parks - Leo Carrillo,0100371,010093,0100930000,020069,1,TAPO,Auto Generated and Verified,50,Unincorporated Los Angeles County,90265,3rd District,36348 Pacific Coast Hwy,"118° 56' 15.057"" W","34° 2' 39.491"" N",SA,,Mapped,34.04430796,-118.93752822,169,34.04517459,-118.94141246
7742,Leo Carrillo Entrance Road,CA State Parks - Leo Carrillo,0100379,010094,0100940000,010005,1,TAPO,Auto Generated and Verified,18,Unincorporated Los Angeles County,90265,3rd District,35789 Pacific Coast Hwy,"118° 55' 58.991"" W","34° 2' 48.595"" N",SA,,Mapped,34.04683663,-118.93306537,170,34.0460351,-118.93371838
7744,Liberty Canyon Fire Road,CA State Parks - Malibu Creek,0100386,010097,0100970000,,1,TH,Auto Generated and Verified,610,Unincorporated Los Angeles County,91302,3rd District,2521 Lad Virgenes Rd,"118° 42' 50.981"" W","34° 6' 32.190"" N",ST,,Mapped,34.10894653,-118.71417366,172,34.10894169,-118.71416139
7745,Liberty Canyon Fire Road,CA State Parks - Malibu Creek,0100392,010097,0100970000,,1,TH,Auto Generated and Verified,733,Agoura Hills,91301,3rd District,27353 Park Vista Rd,"118° 43' 26.299"" W","34° 7' 39.755"" N",ST,,Mapped,34.12771455,-118.72398417,172,34.12770972,-118.7239719
7746,Lifeguard Tower Access Road A,CA State Parks - Leo Carrillo,0100395,010099,0100990000,020069,1,TAPO,Auto Generated and Verified,51,Unincorporated Los Angeles County,90265,3rd District,36260 Pacific Coast Hwy,"118° 56' 12.453"" W","34° 2' 40.123"" N",SA,,Mapped,34.04448333,-118.93680471,173,34.04517459,-118.94141246
7747,Lifeguard Tower Access Road B,CA State Parks - Leo Carrillo,0100399,010100,0101000000,010005,1,TAPO,Auto Generated and Verified,41,Unincorporated Los Angeles County,90265,3rd District,36160 Pacific Coast Hwy,"118° 56' 9.376"" W","34° 2' 40.533"" N",SA,,Mapped,34.04459742,-118.93595011,174,34.0460351,-118.93371838
7748,Lofgren Trail,CA State Parks - Topanga,0100402,010101,0101010000,010010,1,TH,Auto Generated and Verified,1202,Unincorporated Los Angeles County,90290,3rd District,20800 Entrada Rd,"118° 35' 19.967"" W","34° 5' 34.714"" N",SA,,Mapped,34.09298097,-118.58889206,175,34.09327604,-118.58832337
7749,Lookout Road,CA State Parks - Malibu Creek,0100404,010102,0101020000,,1,TAPO,Auto Generated and Verified,1054,Unincorporated Los Angeles County,91301,3rd District,1500 Lookout Dr,"118° 45' 28.784"" W","34° 6' 0.966"" N",ST,,Mapped,34.1002732,-118.7580079,176,34.10026837,-118.75799562
7753,Los Leones Day Use,CA State Parks - Topanga,0100419,010105,0101050000,010015,1,TAPO,Auto Generated and Verified,195,Los Angeles,90272,3rd District,411 Los Liones Dr,"118° 33' 27.607"" W","34° 2' 39.179"" N",SA,,Mapped,34.04422135,-118.55768099,183,34.04480537,-118.55836215
7754,Los Leones Trail,CA State Parks - Topanga,0100443,010106,0101060000,010015,1,TAPO,Auto Generated and Verified,247,Los Angeles,90272,3rd District,575 Los Liones Dr,"118° 33' 35.306"" W","34° 2' 49.641"" N",SA,,Mapped,34.04712732,-118.55981949,184,34.04480537,-118.55836215
7755,Los Leones Trail,CA State Parks - Topanga,0100445,010106,0101060000,010015,1,TH,Auto Generated and Verified,256,Los Angeles,90272,3rd District,575 Los Liones Dr,"118° 33' 36.447"" W","34° 2' 50.206"" N",SA,,Mapped,34.0472842,-118.56013629,184,34.04480537,-118.55836215
7756,Lower Cheeseboro Canyon Trail,National Parks Service,0200452,020075,0200750000,,1,TH,Auto Generated and Verified,933,Unincorporated Los Angeles County,91301,3rd District,5568 Chesebro Rd,"118° 44' 6.632"" W","34° 8' 58.641"" N",ST,,Mapped,34.14962722,-118.73518773,186,34.14962238,-118.73517545
7757,Lower Encina Trail,CA State Parks - Topanga,0100454,010108,0101080000,010011,1,TAPO,Auto Generated and Verified,851,Unincorporated Los Angeles County,90290,3rd District,21943 Entrada Rd,"118° 36' 3.150"" W","34° 5' 40.260"" N",SA,,Mapped,34.09452162,-118.60088719,187,34.09459087,-118.60100712
7758,Lower Stunt High Trail,National Parks Service,0200455,020076,0200760000,,1,TH,Auto Generated and Verified,1263,Unincorporated Los Angeles County,91302,3rd District,1623 Stunt Rd,"118° 38' 53.636"" W","34° 5' 41.723"" N",ST,,Mapped,34.09492784,-118.64824444,188,34.09492301,-118.64823218
7759,Lower Stunt High Trail,National Parks Service,0200456,020076,0200760000,,1,TH,Auto Generated and Verified,1546,Unincorporated Los Angeles County,91302,3rd District,1255 Stunt Rd,"118° 39' 20.730"" W","34° 5' 26.669"" N",ST,,Mapped,34.09074623,-118.65577061,188,34.0907414,-118.65575835
7761,Malibou Lake Connector Trail,National Parks Service,0200458,020077,0200770000,020033,1,TAPO,Auto Generated and Verified,818,Unincorporated Los Angeles County,91301,3rd District,Waring Drive and Mullholland Hwy,"118° 46' 37.768"" W","34° 6' 39.846"" N",SA,,Mapped,34.1110731,-118.77717004,353,34.113872,-118.77854918
7762,Malibu Lake Vista Trail,CA State Parks - Malibu Creek,0100460,010109,0101090000,010013,1,TAPO,Auto Generated and Verified,850,Unincorporated Los Angeles County,91301,3rd District,28848 Lake Vista Dr,"118° 45' 1.495"" W","34° 6' 43.472"" N",SA,,Mapped,34.11208046,-118.75042768,189,34.11234103,-118.75038034
7764,Malibu Springs Trail,National Parks Service,0300463,030009,0300090002,,1,TH,Auto Generated and Verified,415,Unincorporated Los Angeles County,90265,3rd District,35241 Mulholland Hwy,"118° 55' 5.738"" W","34° 5' 1.510"" N",ST,,Mapped,34.0837575,-118.9182729,191,34.08375268,-118.9182606
7766,Marco Polo Trail,National Parks Service,0200467,020079,0200790000,020034,1,TH,Auto Generated and Verified,743,Unincorporated Los Angeles County,91301,3rd District,Paramount Ranch Drive and Cornell Road,"118° 45' 22.675"" W","34° 7' 1.407"" N",SA,,Mapped,34.11706246,-118.75631093,354,34.115627,-118.75482105
7767,Meadow Trail,National Parks Service,0200471,020080,0200800000,,1,TH,Auto Generated and Verified,1042,Unincorporated Los Angeles County,91302,3rd District,2139 Stunt Rd,"118° 39' 27.366"" W","34° 6' 4.808"" N",ST,,Mapped,34.10134052,-118.6576138,355,34.10133568,-118.65760154
7768,Medea Creek - Racetrack Connector,National Parks Service,0200473,020081,0200810000,010013,1,TAPO,Auto Generated and Verified,809,Unincorporated Los Angeles County,91301,3rd District,29015 Mulholland Hwy,"118° 45' 8.881"" W","34° 6' 46.923"" N",SA,,Mapped,34.11303909,-118.7524793,356,34.11234103,-118.75038034
7769,Medea Creek Trail,National Parks Service,0200478,020082,0200820000,010013,1,TAPO,Auto Generated and Verified,831,Unincorporated Los Angeles County,91301,3rd District,28825 Lake Vista Dr,"118° 45' 5.452"" W","34° 6' 46.988"" N",SA,,Mapped,34.11305718,-118.75152666,192,34.11234103,-118.75038034
7770,Medicine Woman Trail,National Parks Service,0200485,020084,0200840000,020034,1,TH,Auto Generated and Verified,758,Unincorporated Los Angeles County,91301,3rd District,2900 Cornell Rd,"118° 45' 24.577"" W","34° 7' 2.492"" N",SA,,Mapped,34.11736375,-118.75683927,358,34.115627,-118.75482105
7773,Mesa Peak Motorway,CA State Parks - Malibu Creek,0100495,010112,0101120000,,1,TH,Auto Generated and Verified,1982,Unincorporated Los Angeles County,90265,3rd District,300 Corral Canyon Rd,"118° 45' 19.983"" W","34° 4' 44.598"" N",ST,,Mapped,34.07905997,-118.75556306,193,34.07905514,-118.75555078
7774,Modelo Trail,National Parks Service,0200500,020085,0200850000,020051,1,TH,Auto Generated and Verified,1011,Unincorporated Los Angeles County,91301,3rd District,Cheseboro Canyon Rd and Cheseboro Road,"118° 43' 50.974"" W","34° 9' 23.571"" N",SA,,Mapped,34.15655231,-118.73083841,359,34.15611327,-118.73114169
7775,Monte Nido Connector,National Parks Service,0200503,020087,0200870000,,1,TAPO,Auto Generated and Verified,632,Unincorporated Los Angeles County,91302,3rd District,803 Wonder View Dr,"118° 41' 5.511"" W","34° 4' 58.941"" N",ST,,Mapped,34.08304412,-118.68487637,361,34.08303929,-118.6848641
7776,Morrison Ranch Trail,National Parks Service,0200505,020088,0200880000,,1,TH,Auto Generated and Verified,809,Calabasas,91302,3rd District,5539 Las Virgenes Rd,"118° 42' 2.005"" W","34° 9' 27.415"" N",ST,,Mapped,34.15762013,-118.70056931,362,34.15761529,-118.70055703
7781,Musch Camp Access Road,CA State Parks - Topanga,0100522,010115,0101150000,,1,TAPO,Auto Generated and Verified,1085,Unincorporated Los Angeles County,90290,3rd District,20846 Hillside Dr,"118° 35' 20.457"" W","34° 6' 14.123"" N",ST,,Mapped,34.10392797,-118.58902806,195,34.10392312,-118.58901581
7782,Backbone Trail - Musch Trail,CA State Parks - Topanga,0100527,010118,0101180000,010010,1,TAPO,Auto Generated and Verified,1184,Unincorporated Los Angeles County,90290,3rd District,20800 Entrada Rd,"118° 35' 14.804"" W","34° 5' 36.925"" N",SA,,Mapped,34.09359514,-118.58745787,197,34.09327604,-118.58832337
7783,Nature Trail,CA State Parks - Topanga,0100529,010119,0101190001,010010,1,TAPO,Auto Generated and Verified,1184,Los Angeles,90290,3rd District,20800 Entrada Rd,"118° 35' 14.462"" W","34° 5' 36.829"" N",SA,,Mapped,34.09356836,-118.58736273,198,34.09327604,-118.58832337
7784,Newton Motorway (Cessna Drive),National Parks Service,0200541,020092,0200920000,,1,TH,Auto Generated and Verified,2243,Unincorporated Los Angeles County,90265,3rd District,Newton Mtwy,"118° 47' 18.508"" W","34° 4' 39.565"" N",ST,,Mapped,34.07766185,-118.78848679,365,34.07765702,-118.78847451
7788,Nicholas Flat Trail,CA State Parks - Leo Carrillo,0100545,010121,0101210000,010005,1,TAPO,Auto Generated and Verified,18,Unincorporated Los Angeles County,90265,3rd District,35789 Pacific Coast Hwy,"118° 55' 58.991"" W","34° 2' 48.595"" N",SA,,Mapped,34.04683663,-118.93306537,200,34.0460351,-118.93371838
7789,Nicholas Flat Trail,CA State Parks - Leo Carrillo,0100546,010121,0101210000,,1,TH,Auto Generated and Verified,1483,Unincorporated Los Angeles County,90265,3rd District,33700 Decker School Rd,"118° 54' 23.309"" W","34° 4' 14.190"" N",ST,,Mapped,34.07061305,-118.90648716,200,34.07060823,-118.90647486
7790,North Grasslands Trail,CA State Parks - Malibu Creek,0100559,010127,0101270000,,1,TH,Auto Generated and Verified,584,Unincorporated Los Angeles County,91302,3rd District,26951 Mulholland Hwy,"118° 42' 49.760"" W","34° 6' 12.568"" N",ST,,Mapped,34.10349595,-118.71383463,208,34.10349111,-118.71382236
7791,Kanan - Edison Road,National Parks Service,0200564,020071,0200710008,020003,1,TAPO,Auto Generated and Verified,113,Malibu,90265,3rd District,End of Bonsall Drive,"118° 48' 43.841"" W","34° 2' 4.132"" N",SA,,Mapped,34.03448596,-118.81219041,352,34.03150978,-118.8121208
7794,Park Entrance Road,CA State Parks - Malibu Creek,0100577,010129,0101290000,010012,1,TAPO,Auto Generated and Verified,539,Unincorporated Los Angeles County,91302,3rd District,27347 Waycross Dr,"118° 43' 1.366"" W","34° 5' 45.421"" N",SA,,Mapped,34.0959552,-118.71705847,236,34.09681547,-118.71614763
7798,Pentachaeta Trail,National Parks Service,0200585,020099,0200990000,,1,TH,Auto Generated and Verified,866,Westlake Village,91361,3rd District,2 Sherwood Dr,"118° 49' 17.350"" W","34° 7' 52.738"" N",ST,,Mapped,34.13132085,-118.82149848,369,34.13131602,-118.82148619
7799,Peter Strauss Ranch Loop Trail,National Parks Service,0200587,020100,0201000000,020033,1,TAPO,Auto Generated and Verified,761,Unincorporated Los Angeles County,91301,3rd District,Waring Drive and Mullholland Hwy,"118° 46' 46.219"" W","34° 6' 46.798"" N",SA,,Mapped,34.11300414,-118.77951743,370,34.113872,-118.77854918
7801,Phantom Trail,CA State Parks - Malibu Creek,0100589,010132,0101320000,,1,TAPO,Auto Generated and Verified,1007,Unincorporated Los Angeles County,91302,3rd District,27663 Mulholland Hwy,"118° 43' 56.190"" W","34° 6' 22.101"" N",ST,,Mapped,34.10614389,-118.73228731,239,34.10613906,-118.73227504
7802,Polo Field Road,CA State Parks - Will Rogers,0100602,010136,0101360000,010006,1,TAPO,Auto Generated and Verified,426,Los Angeles,90272,3rd District,1798 Will Rogers State Park Rd,"118° 30' 38.694"" W","34° 3' 16.547"" N",SA,,Mapped,34.05460117,-118.51076068,243,34.05390543,-118.51161491
7804,Potrero Road,National Parks Service,0200614,020102,0201020000,020011,1,TAPO,Auto Generated and Verified,1333,Malibu,90265,3rd District,Encinal Canyon Rod and Carmichael Rd,"118° 52' 47.387"" W","34° 3' 15.891"" N",SA,,Mapped,34.05441893,-118.8798419,372,34.05878327,-118.87961425
7805,Potrero Road,National Parks Service,0200615,020102,0201020000,020011,1,TAPO,Auto Generated and Verified,1457,Unincorporated Los Angeles County,90265,3rd District,Potrero Rd,"118° 52' 50.799"" W","34° 3' 39.860"" N",SA,,Mapped,34.06107711,-118.88078973,372,34.05878327,-118.87961425
7808,Ramirez Accessible Trail,National Parks Service,0200637,020105,0201050000,,1,TAPO,Auto Generated and Verified,246,Unincorporated Los Angeles County,90265,3rd District,None,"118° 47' 38.414"" W","34° 2' 19.209"" N",N,,Mapped,34.03867392,-118.79401621,375,34.03866909,-118.79400393
7810,Ranch House Trail - Upper,CA State Parks - Will Rogers,0100639,010141,0101410000,010006,1,TH,Auto Generated and Verified,449,Los Angeles,90272,3rd District,1677 Will Rogers State Park Rd,"118° 30' 47.515"" W","34° 3' 16.586"" N",SA,,Mapped,34.05461208,-118.51321084,245,34.05390543,-118.51161491
7811,Red Rock Road,National Parks Service,0200641,020106,0201060000,,1,TAPO,Auto Generated and Verified,988,Unincorporated Los Angeles County,90290,3rd District,1277 Old Topanga Canyon Rd,"118° 37' 41.834"" W","34° 6' 15.216"" N",ST,,Mapped,34.1042316,-118.62829936,376,34.10422676,-118.6282871
7812,Red Rock Trail,National Parks Service,0200644,020107,0201070000,,1,TAPO,Auto Generated and Verified,1508,Unincorporated Los Angeles County,90290,3rd District,,"118° 38' 28.081"" W","34° 6' 33.738"" N",ST,,Mapped,34.10937642,-118.64114592,377,34.10937158,-118.64113366
7813,Reseda Spur Trail,CA State Parks - Topanga,0100645,010142,0101420000,,1,TH,Auto Generated and Verified,1611,Los Angeles,91356,3rd District,3001 Reseda Blvd,"118° 33' 10.748"" W","34° 7' 49.707"" N",ST,,Mapped,34.13047896,-118.55299776,246,34.13047412,-118.55298551
7814,Ridge-Canyon Access Trail,National Parks Service,0200647,020108,0201080000,020006,1,TH,Auto Generated and Verified,426,Malibu,90265,3rd District,5555 Busch Dr,"118° 49' 5.103"" W","34° 2' 2.411"" N",SA,,Mapped,34.03400787,-118.81809649,378,34.03374006,-118.81797169
7815,Rising Sun Trail,National Parks Service,0200650,020109,0201090000,020009,1,TH,Auto Generated and Verified,299,Malibu,90265,3rd District,North of Solstice Canyon Rd and Corral Canyon Rd,"118° 44' 59.639"" W","34° 2' 20.670"" N",SA,,Mapped,34.0390797,-118.74991209,379,34.03776005,-118.74738586
7818,Rocky Oaks Loop Trail,National Parks Service,0200664,020112,0201120000,020024,1,TH,Confirmed with NPS data points,1709,Unincorporated Los Angeles County,90265,3rd District,31520 Mulholland Hwy,"118° 48' 50.706"" W","34° 5' 49.412"" N",SA,,Mapped,34.09706364,-118.81409729,382,34.09697274,-118.81415234
7819,Rustic Canyon Trail,CA State Parks - Topanga,0100668,030007,0300070000,010006,1,TAPO,Auto Generated and Verified,415,Los Angeles,90272,3rd District,1666 Will Rogers State Park Rd,"118° 30' 34.611"" W","34° 3' 15.881"" N",SA,,Mapped,34.0544161,-118.50962649,264,34.05390543,-118.51161491
7820,Santa Maria Canyon Trail,National Parks Service,0200669,020114,0201140000,,1,TH,Auto Generated and Verified,1457,Unincorporated Los Angeles County,90290,3rd District,3110 N Summit Pointe Dr,"118° 35' 28.769"" W","34° 7' 57.936"" N",ST,,Mapped,34.13276493,-118.59133685,383,34.13276008,-118.5913246
7822,Santa Ynez Canyon Trail,CA State Parks - Topanga,0100672,010149,0101490000,,1,TAPO,Auto Generated and Verified,608,Los Angeles,90272,3rd District,17415 Camino de Yatasto,"118° 34' 2.523"" W","34° 4' 42.002"" N",ST,,Mapped,34.07833887,-118.56737966,266,34.07833403,-118.56736741
7823,Morrison Open Space SCE Road Trail,National Parks Service,0200678,020115,0201150000,,1,TH,Auto Generated and Verified,863,Calabasas,91302,3rd District,6063 Las Virgenes Rd,"118° 42' 10.935"" W","34° 10' 3.404"" N",ST,,Mapped,34.16761713,-118.7030497,384,34.16761229,-118.70303743
7824,Sostomo Trail,National Parks Service,0200685,020118,0201180000,,1,TH,Auto Generated and Verified,368,Unincorporated Los Angeles County,90265,3rd District,Roberts Rd,"118° 45' 14.863"" W","34° 2' 56.939"" N",ST,,Mapped,34.04915457,-118.75414081,387,34.04914974,-118.75412854
7825,South Bay Bicycle Trail,CA State Parks - Will Rogers,0100687,010153,0101530000,,1,TAPO,Auto Generated and Verified,22,Los Angeles,90272,3rd District,15314 Pacific Coast Hwy,"118° 31' 43.619"" W","34° 1' 55.900"" N",ST,,Mapped,34.03219919,-118.52879527,276,34.03219435,-118.52878304
7826,South Bay Bicycle Trail,CA State Parks - Will Rogers,0100688,010153,0101530000,,1,TAPO,Auto Generated and Verified,24,Los Angeles,90272,3rd District,16300 Pacific Coast Hwy,"118° 32' 20.964"" W","34° 2' 13.130"" N",ST,,Mapped,34.03698547,-118.53916877,276,34.03698063,-118.53915653
7827,South Beach Access Trail,CA State Parks - Leo Carrillo,0100696,010154,0101540000,010005,1,TAPO,Auto Generated and Verified,11,Unincorporated Los Angeles County,90265,3rd District,35907 Pacific Coast Hwy,"118° 56' 3.676"" W","34° 2' 44.587"" N",SA,,Mapped,34.04572343,-118.93436667,277,34.0460351,-118.93371838
7829,Sullivan Ridge Fire Road,CA State Parks - Topanga,0100708,010158,0101580000,,1,TAPO,Auto Generated and Verified,965,Los Angeles,90272,3rd District,Sullivan Fire Rd,"118° 30' 58.633"" W","34° 4' 51.871"" N",ST,,Mapped,34.08108023,-118.51629918,280,34.08107539,-118.51628694
7830,Summer Hill Ranch Road,National Parks Service,0200713,020119,0201190000,,1,TH,Auto Generated and Verified,1219,Unincorporated Los Angeles County,90290,3rd District,2164 Santa Maria Rd,"118° 35' 16.958"" W","34° 7' 25.578"" N",ST,,Mapped,34.12377639,-118.58805605,388,34.12377154,-118.5880438
7832,Summit-to-Summit - Santa Maria Cyn Connector,National Parks Service,0200716,020120,0201200000,,1,TH,Auto Generated and Verified,1457,Unincorporated Los Angeles County,90290,3rd District,3110 N Summit Pointe Dr,"118° 35' 28.769"" W","34° 7' 57.936"" N",ST,,Mapped,34.13276493,-118.59133685,389,34.13276008,-118.5913246
7833,Sunset Trail,CA State Parks - Will Rogers,0100720,010161,0101610000,,1,TH,Auto Generated and Verified,252,Los Angeles,90272,3rd District,14280 W Sunset Blvd,"118° 30' 38.563"" W","34° 3' 4.130"" N",ST,,Mapped,34.05115197,-118.51072406,282,34.05114713,-118.51071182
7834,Tapia Spur Trail,CA State Parks - Malibu Creek,0100723,010163,0101630000,020018,1,TH,Auto Generated and Verified,471,Unincorporated Los Angeles County,91302,3rd District,Piuma Road and Malibu Canyon Rd,"118° 42' 22.891"" W","34° 4' 57.682"" N",SA,,Mapped,34.08269423,-118.70637079,284,34.08296648,-118.70554765
7835,Temescal Ridge Trail,CA State Parks - Topanga,0100729,030013,0300130001,020010,1,TAPO,Auto Generated and Verified,449,Los Angeles,90272,3rd District,993 Temescal Canyon Rd,"118° 31' 45.775"" W","34° 3' 18.937"" N",SA,,Mapped,34.0552652,-118.52939405,287,34.05350709,-118.52865643
7836,Three Park Trail,National Parks Service,0200735,020122,0201220000,020011,1,TH,Auto Generated and Verified,1326,Unincorporated Los Angeles County,90265,3rd District,Carmichael Rd,"118° 52' 45.098"" W","34° 3' 30.079"" N",SA,,Mapped,34.05836011,-118.87920613,390,34.05878327,-118.87961425
7838,Topanga Community House Trail,CA State Parks - Topanga,0100740,010168,0101680000,020070,1,TAPO,Auto Generated and Verified,1137,Unincorporated Los Angeles County,90290,3rd District,Topanga Canyon Boulevard and Oakwood Drive,"118° 35' 19.487"" W","34° 6' 38.579"" N",SA,,Mapped,34.11072135,-118.58875865,289,34.11159825,-118.5902118
7839,Topanga Knoll Trail,CA State Parks - Topanga,0100741,010169,0101690000,010003,1,TAPO,Auto Generated and Verified,37,Unincorporated Los Angeles County,90265,3rd District,3989 Topanga Canyon Ln,"118° 34' 54.948"" W","34° 2' 23.389"" N",SA,,Mapped,34.0398352,-118.58194229,290,34.03959671,-118.58261482
7841,Trancas-Edison Road,National Parks Service,0200750,020125,0201250000,,1,TAPO,Auto Generated and Verified,903,Unincorporated Los Angeles County,90265,3rd District,,"118° 50' 32.621"" W","34° 3' 45.636"" N",ST,,Mapped,34.06268162,-118.84240706,392,34.0626768,-118.84239477
7842,Trancas Canyon SCE Road Trail ,CA State Parks - Malibu Creek,0300753,030001,0300010000,020067,1,TAPO,Auto Generated and Verified,1619,Unincorporated Los Angeles County,90265,3rd District,1063 Encinal Canyon Rd,"118° 50' 49.232"" W","34° 5' 3.139"" N",SA,,Mapped,34.08421021,-118.8470213,292,34.08530284,-118.86248446
7844,Tuna Canyon Main Entrance Trail,National Parks Service,0200756,020127,0201270000,,1,TH,Auto Generated and Verified,1555,Unincorporated Los Angeles County,90290,3rd District,3200 Tuna Canyon Rd,"118° 36' 59.519"" W","34° 3' 34.856"" N",ST,,Mapped,34.05968704,-118.61654529,393,34.0596822,-118.61653304
7845,Upper Encina Trail,CA State Parks - Topanga,0100760,010172,0101720000,010009,1,TAPO,Auto Generated and Verified,1056,Unincorporated Los Angeles County,90290,3rd District,21285 Entrada Rd,"118° 35' 50.128"" W","34° 5' 34.790"" N",SA,,Mapped,34.09300197,-118.59727006,293,34.09294639,-118.5973062
7846,Upper Rustic Canyon Trail,CA State Parks - Topanga,0100762,010173,0101730000,,1,TAPO,Auto Generated and Verified,1247,Los Angeles,90272,3rd District,,"118° 32' 34.593"" W","34° 7' 17.014"" N",ST,,Mapped,34.12139753,-118.54295474,294,34.12139269,-118.5429425
7847,Upper Stunt High Trail,National Parks Service,0200763,020128,0201280000,,1,TH,Auto Generated and Verified,1558,Unincorporated Los Angeles County,91302,3rd District,1213 Stunt Rd,"118° 39' 25.707"" W","34° 5' 27.008"" N",ST,,Mapped,34.09084031,-118.657153,312,34.09083547,-118.65714074
7849,Wayview Road,CA State Parks - Topanga,0100770,010175,0101750000,,1,TAPO,Auto Generated and Verified,1261,Unincorporated Los Angeles County,90290,3rd District,20878 Entrada Rd,"118° 35' 20.162"" W","34° 5' 31.183"" N",ST,,Mapped,34.09200014,-118.58894613,296,34.0919953,-118.58893388
7850,Western Town Road A,National Parks Service,0200771,020129,0201290000,020034,1,TH,Auto Generated and Verified,738,Unincorporated Los Angeles County,91301,3rd District,Paramount Ranch Rd,"118° 45' 18.864"" W","34° 6' 55.785"" N",SA,,Mapped,34.11550054,-118.75525222,394,34.115627,-118.75482105
7851,Western Town Road B,National Parks Service,0200774,020130,0201300000,020034,1,TAPO,Auto Generated and Verified,744,Unincorporated Los Angeles County,91301,3rd District,Paramount Ranch Rd,"118° 45' 22.766"" W","34° 6' 55.182"" N",SA,,Mapped,34.11533303,-118.75633614,395,34.115627,-118.75482105
7852,Inspiration Point Loop Trail,CA State Parks - Will Rogers,0100780,010083,0100830000,010006,1,TAPO,Auto Generated and Verified,486,Los Angeles,90272,3rd District,1666 Will Rogers State Park Rd,"118° 30' 44.250"" W","34° 3' 23.717"" N",SA,,Mapped,34.05659278,-118.51230395,298,34.05390543,-118.51161491
7853,Pasture Trail,CA State Parks - Will Rogers,0100781,010131,0101310000,010006,1,TH,Auto Generated and Verified,497,Los Angeles,90272,3rd District,1666 Will Rogers State Park Rd,"118° 30' 45.986"" W","34° 3' 24.067"" N",SA,,Mapped,34.05669021,-118.51278612,299,34.05390543,-118.51161491
7854,Rivas Canyon Trail,CA State Parks - Will Rogers,0100790,030015,0300150000,010006,1,TAPO,Auto Generated and Verified,445,Los Angeles,90272,3rd District,1677 Will Rogers State Park Rd,"118° 30' 48.022"" W","34° 3' 16.596"" N",SA,,Mapped,34.05461471,-118.51335177,407,34.05390543,-118.51161491
7855,Malibu Scenic Overlook Trail,CA State Parks - Leo Carrillo,0100792,010110,0101760000,010005,1,TAPO,,18,Unincorporated Los Angeles County,90265,3rd District,35907 Pacific Coast Hwy,"118° 55' 58.991"" W","34° 2' 48.595"" N",SA,,Mapped,34.04683663,-118.93306537,190,34.0460351,-118.93371838
7858,Yearling Trail,CA State Parks - Malibu Creek,0100799,010179,0101790000,010013,1,TAPO,Auto Generated and Verified,838,Unincorporated Los Angeles County,91301,3rd District,28998 Mulholland Hwy,"118° 45' 4.013"" W","34° 6' 47.060"" N",SA,,Mapped,34.11307697,-118.75112705,304,34.11234103,-118.75038034
7859,Yellow Hill Fire Road,CA State Parks - Leo Carrillo,0100801,010180,0101800000,010005,1,TAPO,Auto Generated and Verified,23,Unincorporated Los Angeles County,90265,3rd District,35399 Mulholland Hwy,"118° 56' 6.644"" W","34° 2' 46.641"" N",SA,,Mapped,34.04629397,-118.93519105,305,34.0460351,-118.93371838
7861,Yucca Trail,National Parks Service,0200808,020132,0201320000,,1,TH,Auto Generated and Verified,1098,Unincorporated Los Angeles County,91302,3rd District,2002 Stunt Rd,"118° 39' 14.264"" W","34° 6' 0.599"" N",ST,,Mapped,34.10017112,-118.65397436,313,34.10016628,-118.6539621
7863,Zuma Edison Road,National Parks Service,0200814,020135,0201350000,,1,TH,Confirmed with NPS data points,1323,Unincorporated Los Angeles County,90265,3rd District,2615 S Kanan Dume Rd,"118° 48' 14.580"" W","34° 3' 40.972"" N",ST,,Mapped,34.06138582,-118.80406238,398,34.06138099,-118.8040501
7864,Zuma Loop Trail,National Parks Service,0200815,020136,0201360000,020003,1,TAPO,Auto Generated and Verified,112,Malibu,90265,3rd District,End of Bonsall Drive,"118° 48' 44.078"" W","34° 2' 2.932"" N",SA,,Mapped,34.03415266,-118.81225616,399,34.03150978,-118.8121208
7865,Zuma Ridge Motorway,National Parks Service,0200818,020137,0201370000,020006,1,TH,Auto Generated and Verified,426,Malibu,90265,3rd District,5555 Busch Dr,"118° 49' 5.103"" W","34° 2' 2.411"" N",SA,,Mapped,34.03400787,-118.81809649,400,34.03374006,-118.81797169
7867,Solstice Canyon Trail,National Parks Service,0101060,020117,0201170000,020009,1,TH,Added From NPS ParkEntrancePts.shp,51,Malibu,90265,3rd District,3998 Solstice Canyon Rd,"118° 44' 40.191"" W","34° 2' 5.796"" N",SA,,Mapped,34.03494817,-118.74450966,386,34.03776005,-118.74738586
7868,Nicholas Ridge Trail,CA State Parks - Leo Carrillo,0101080,010126,,,1,TAPO,Added per Dale's request,1483,Unincorporated Los Angeles County,90265,3rd District,33700 Decker School Rd,"118° 54' 23.309"" W","34° 4' 14.190"" N",ST,,Mapped,34.07061305,-118.90648716,206,34.07060823,-118.90647486
7869,Trailer Canyon Fire Road, ,0301084,030008,0300080000,,1,TAPO,Added From NPS ParkEntrancePts.shp,917,Los Angeles,90272,3rd District,1775 W Michael Ln,"118° 33' 34.199"" W","34° 4' 44.798"" N",ST,,Mapped,34.07911528,-118.55951192,291,34.07911044,-118.55949968
7870,Piuma Connector Trail, ,0101087,010135,0101350000,010007,1,TAPO,Added From NPS ParkEntrancePts.shp,493,Unincorporated Los Angeles County,91302,3rd District,Mesa Peak Tractor Way and Malibu Canyon Rd,"118° 42' 13.836"" W","34° 4' 47.773"" N",SA,,Mapped,34.07994189,-118.70385553,242,34.08008515,-118.70381667
7876,Mulholland Drive, ,0201200,020090,0200900002,020042,1,TH,Added From hard copy maps and state parks data,1879,Los Angeles,90049,3rd District,17460 Mulholland Dr,"118° 30' 48.638"" W","34° 7' 44.540"" N",SA,,Mapped,34.12904371,-118.51352284,363,34.12901524,-118.51349403
7879,Bulldog Motorway,CA State Parks - Malibu Creek,0301216,030005,0300050009,010013,1,TAPO,Auto Generated and Verified,690,Unincorporated Los Angeles County,91301,3rd District,28848 Lake Vista Dr,"118° 44' 55.436"" W","34° 5' 49.754"" N",SA,,Mapped,34.09715876,-118.74874438,106,34.11234103,-118.75038034
7880,California Coastal Trail,National Parks Service,0201217,010187,0101870005,010001,1,TAPO,Auto Generated and Verified,8,Malibu,90265,3rd District,23314 Malibu Colony Rd,"118° 40' 54.639"" W","34° 1' 53.394"" N",SA,,Mapped,34.0315031,-118.68185631,110,34.03396593,-118.68485652
7884,Backbone Trail - Piuma Ridge, ,0101222,010018,0100180000,020018,1,TAPO,,485,Unincorporated Los Angeles County,91302,3rd District,897 Las Virgenes Rd,"118° 42' 19.760"" W","34° 4' 59.374"" N",SA,,Mapped,34.08316434,-118.70550111,81,34.08296648,-118.70554765
7885,Nicholas Flat Trail, ,0101226,010121,0101210000,010005,1,TAPO,,13,Unincorporated Los Angeles County,90265,3rd District,35789 Pacific Coast Hwy,"118° 56' 1.403"" W","34° 2' 46.320"" N",SA,,Mapped,34.04620493,-118.9337354,200,34.0460351,-118.93371838
7886,Pipe Corral Trail,CA State Parks - Will Rogers,0101325,010134,0101340000,010006,1,TAPO,Auto Generated and Verified,430,Los Angeles,90272,3rd District,14400 Villa Woods Pl,"118° 30' 42.398"" W","34° 3' 16.301"" N",SA,,Mapped,34.05453293,-118.51178947,241,34.05390543,-118.51161491
7887,Talepop Trail, ,0101228,010162,0101620000,010012,1,TAPO,,549,Unincorporated Los Angeles County,91302,3rd District,27357 Waycross Dr,"118° 42' 58.743"" W","34° 5' 48.305"" N",SA,,Mapped,34.09675616,-118.71632979,283,34.09681547,-118.71614763
7888,Winfield Trail, ,0101230,010177,0101770000,010010,1,TAPO,,1184,Unincorporated Los Angeles County,90290,3rd District,Entrada Rd,"118° 35' 16.043"" W","34° 5' 36.229"" N",SA,,Mapped,34.09340166,-118.587802,302,34.09327604,-118.58832337
7889,Temescal Canyon Trail, ,0101231,030014,0300140000,020010,1,TAPO,,325,Los Angeles,90272,3rd District,965 Temescal Canyon Rd,"118° 31' 42.871"" W","34° 3' 11.368"" N",SA,,Mapped,34.05316267,-118.5285875,285,34.05350709,-118.52865643
7890,Bent Arrow Trail, ,0101233,010030,0100300000,,1,TAPO,,1724,Los Angeles,91356,3rd District,3001 Reseda Blvd,"118° 33' 13.514"" W","34° 7' 43.063"" N",ST,,Mapped,34.12863336,-118.553766,96,34.12862851,-118.55375375
7891,Temescal Ridge Trail, ,0101234,030013,0300130001,<Null>,1,TAPO,,1184,Unincorporated Los Angeles County,90290,3rd District,Entrada Rd,"118° 35' 16.043"" W","34° 5' 36.229"" N",ST,,Mapped,34.09340166,-118.587802,287,34.09339682,-118.58778975
7892,Chaparral Trail, ,0101235,010044,0100440000,010012,1,TAPO,,549,Unincorporated Los Angeles County,91302,3rd District,27359 Waycross Dr,"118° 42' 58.413"" W","34° 5' 48.307"" N",SA,,Mapped,34.0967567,-118.71623806,117,34.09681547,-118.71614763
7893,Lost Cabin Trail, ,0101238,010107,0101070000,010012,1,TAPO,,549,Unincorporated Los Angeles County,91302,3rd District,27359 Waycross Dr,"118° 42' 58.413"" W","34° 5' 48.307"" N",SA,,Mapped,34.0967567,-118.71623806,185,34.09681547,-118.71614763
7894,Mott Road, ,0101239,010114,0101140000,010012,1,TAPO,,549,Unincorporated Los Angeles County,91302,3rd District,27359 Waycross Dr,"118° 42' 58.413"" W","34° 5' 48.307"" N",SA,,Mapped,34.0967567,-118.71623806,194,34.09681547,-118.71614763
7895,Liberty Canyon Fire Road,CA State Parks - Malibu Creek,0101241,010097,0100970000,,1,TH,Auto Generated and Verified,733,Agoura Hills,91301,3rd District,27353 Park Vista Rd,"118° 43' 26.299"" W","34° 7' 39.755"" N",ST,,Mapped,34.12771455,-118.72398417,172,34.12770972,-118.7239719
7896,Phantom Trail,CA State Parks - Malibu Creek,0101242,010132,0101320000,,1,TAPO,Added From NPS ParkEntrancePts.shp,733,Agoura Hills,91301,3rd District,27353 Park Vista Rd,"118° 43' 26.299"" W","34° 7' 39.755"" N",ST,,Mapped,34.12771455,-118.72398417,239,34.12770972,-118.7239719
7897,Tapia Spur Trail, ,0101244,010163,0101630000,010012,1,TAPO,,549,Unincorporated Los Angeles County,91302,3rd District,27359 Waycross Dr,"118° 42' 58.413"" W","34° 5' 48.307"" N",SA,,Mapped,34.0967567,-118.71623806,284,34.09681547,-118.71614763
7898,Bulldog Motorway, ,0301246,030005,0300050009,010012,1,TAPO,,690,Unincorporated Los Angeles County,91302,3rd District,27359 Waycross Dr,"118° 44' 55.436"" W","34° 5' 49.754"" N",SA,,Mapped,34.09715876,-118.74874438,106,34.09681547,-118.71614763
7899,Backbone Trail - Mesa Peak Motorway, ,0101247,010014,0100140000,020068,1,TAPO,,472,Unincorporated Los Angeles County,91302,3rd District,26261 Piuma Rd,"118° 42' 15.534"" W","34° 4' 55.390"" N",SA,,Mapped,34.0820577,-118.70432725,76,34.08204647,-118.70431305
7900,Mott Road,CA State Parks - Malibu Creek,0101248,010114,0101140000,010012,1,TAPO,Auto Generated and Verified,539,Unincorporated Los Angeles County,91302,3rd District,27347 Waycross Dr,"118° 43' 1.366"" W","34° 5' 45.421"" N",SA,,Mapped,34.0959552,-118.71705847,194,34.09681547,-118.71614763
7901,Tapia Spur Trail,CA State Parks - Malibu Creek,0101249,010163,0101630000,010012,1,TAPO,Auto Generated and Verified,539,Unincorporated Los Angeles County,91302,3rd District,27347 Waycross Dr,"118° 43' 1.366"" W","34° 5' 45.421"" N",SA,,Mapped,34.0959552,-118.71705847,284,34.09681547,-118.71614763
7902,California Coastal Trail,National Parks Service,0201250,010187,0101870008,020008,1,TAPO,Auto Generated and Verified,10,Unincorporated Los Angeles County,90265,3rd District,18652 Pacific Coast Hwy,"118° 34' 53.851"" W","34° 2' 19.284"" N",SA,,Mapped,34.0386948,-118.58163761,110,34.03926158,-118.58200188
7903,Inspiration Point Loop ADA Trail,CA State Parks - Will Rogers,0101250,010183,0101830000,010006,1,TAPO,Auto Generated and Verified,485,Los Angeles,90272,3rd District,1666 Will Rogers State Park Rd,"118° 30' 46.681"" W","34° 3' 22.398"" N",SA,,Mapped,34.05622642,-118.51297925,160,34.05390543,-118.51161491
7905,Kanan - Edison Road,National Parks Service,0201282,020071,0200710001,,1,TAPO,Auto Generated and Verified,493,Malibu,90265,3rd District,,"118° 48' 1.243"" W","34° 2' 2.952"" N",ST,,Mapped,34.03415825,-118.80035747,352,34.03415343,-118.80034519
7906,Backbone Trail,National Parks Service - Topanga,0201251,030012,0200060000,010010,1,TH,Auto Generated and Verified,1184,Unincorporated Los Angeles County,90290,3rd District,20801 Entrada Rd,"118° 35' 14.804"" W","34° 5' 36.925"" N",SA,,Mapped,34.09359514,-118.58745787,307,34.09327604,-118.58832337
7907,Backbone Trail,National Parks Service,0201252,030012,0200070000,020067,1,TH,Auto Generated and Verified,1397,Unincorporated Los Angeles County,90265,3rd District,1063 Encinal Canyon Rd,"118° 51' 41.301"" W","34° 5' 6.322"" N",SA,,Mapped,34.08509415,-118.86148466,307,34.08530284,-118.86248446
7908,Backbone Trail,CA State Parks - Topanga,0101251,030012,0100090000,020017,1,TAPO,Auto Generated and Verified,2397,Unincorporated Los Angeles County,90290,3rd District,24745 Saddle Peak Rd,"118° 38' 38.761"" W","34° 4' 55.354"" N",SA,,Mapped,34.08204765,-118.64411248,307,34.08128521,-118.6455619
7909,Backbone Trail,CA State Parks - Topanga,0101252,030012,0100090000,010016,1,TAPO,Auto Generated and Verified,2353,Unincorporated Los Angeles County,90290,3rd District,23809 Saddle Peak Rd,"118° 38' 9.252"" W","34° 5' 1.826"" N",SA,,Mapped,34.08384526,-118.63591572,307,34.0838348,-118.63615956
7910,Backbone Trail,CA State Parks - Topanga,0101253,030012,0100100000,010016,1,TAPO,Auto Generated and Verified,2353,Unincorporated Los Angeles County,90290,3rd District,23809 Saddle Peak Rd,"118° 38' 9.252"" W","34° 5' 1.826"" N",SA,,Mapped,34.08384526,-118.63591572,307,34.0838348,-118.63615956
7911,Backbone Trail,CA State Parks - Topanga,0101254,030012,0100100000,,1,TH,Auto Generated and Verified,790,Unincorporated Los Angeles County,90290,3rd District,325 Old Topanga Canyon Rd,"118° 36' 33.101"" W","34° 5' 34.934"" N",ST,,Mapped,34.09304197,-118.60920706,307,34.09303713,-118.6091948
7912,Backbone Trail,National Parks Service,0201253,030012,0200100000,020016,1,TH,Confirmed with NPS data points,2044,Unincorporated Los Angeles County,90265,3rd District,1770 Latigo Canyon Rd,"118° 47' 38.055"" W","34° 4' 40.449"" N",SA,,Mapped,34.07790737,-118.79391645,307,34.07805922,-118.79375099
7913,Backbone Trail,CA State Parks - Will Rogers,0101255,030012,0100120000,010006,1,TAPO,Auto Generated and Verified,426,Los Angeles,90272,3rd District,1666 Will Rogers State Park Rd,"118° 30' 47.379"" W","34° 3' 15.486"" N",SA,,Mapped,34.0543065,-118.51317308,307,34.05390543,-118.51161491
7914,Backbone Trail,CA State Parks - Malibu Creek,0101256,030012,0100140000,010008,1,TH,Auto Generated and Verified,1992,Unincorporated Los Angeles County,90265,3rd District,Castro Peak Mtwy,"118° 45' 30.218"" W","34° 4' 55.211"" N",SA,,Mapped,34.08200797,-118.75840606,307,34.08202331,-118.75840519
7915,Backbone Trail,National Parks Service,0201254,030012,0200120000,020015,1,TH,Confirmed with NPS data points,1540,Unincorporated Los Angeles County,90265,3rd District,1701 S Kanan Dume Rd,"118° 48' 57.340"" W","34° 4' 34.051"" N",SA,,Mapped,34.07613002,-118.81594009,307,34.07597932,-118.81541283
7916,Backbone Trail,National Parks Service,0201255,030012,0200120000,020016,1,TH,Confirmed with NPS data points,2044,Unincorporated Los Angeles County,90265,3rd District,1770 Latigo Canyon Rd,"118° 47' 38.055"" W","34° 4' 40.449"" N",SA,,Mapped,34.07790737,-118.79391645,307,34.07805922,-118.79375099
7917,Backbone Trail,CA State Parks - Topanga,0101257,030012,0100160000,,1,TH,Auto Generated and Verified,790,Unincorporated Los Angeles County,90290,3rd District,325 Old Topanga Canyon Rd,"118° 36' 33.101"" W","34° 5' 34.934"" N",ST,,Mapped,34.09304197,-118.60920706,307,34.09303713,-118.6091948
7918,Backbone Trail,CA State Parks - Topanga,0101258,030012,0100070000,010011,1,TAPO,Auto Generated and Verified,851,Unincorporated Los Angeles County,90290,3rd District,21943 Entrada Rd,"118° 36' 3.150"" W","34° 5' 40.260"" N",SA,,Mapped,34.0945216,-118.60088718,307,34.09459087,-118.60100712
7919,Backbone Trail,CA State Parks - Malibu Creek,0101259,030012,0100180000,020068,1,TH,Auto Generated and Verified,463,Unincorporated Los Angeles County,91302,3rd District,26278 Piuma Rd,"118° 42' 12.114"" W","34° 4' 54.477"" N",SA,,Mapped,34.08180404,-118.70337732,307,34.08204647,-118.70431305
7920,Backbone Trail,CA State Parks - Malibu Creek,0301247,030012,0300020000,020017,1,TH,Auto Generated and Verified,2374,Unincorporated Los Angeles County,90290,3rd District,24839 Saddle Peak Rd,"118° 38' 42.252"" W","34° 4' 52.556"" N",SA,,Mapped,34.08127044,-118.64508228,307,34.08128521,-118.6455619
7921,Backbone Trail,National Parks Service,0201256,030012,0200160000,020017,1,TH,Auto Generated and Verified,2374,Unincorporated Los Angeles County,90290,3rd District,24839 Saddle Peak Rd,"118° 38' 42.252"" W","34° 4' 52.556"" N",SA,,Mapped,34.08127044,-118.64508228,307,34.08128521,-118.6455619
7922,Backbone Trail,National Parks Service,0201257,030012,0200160000,020017,1,TAPO,Auto Generated and Verified,2397,Unincorporated Los Angeles County,90290,3rd District,24745 Saddle Peak Rd,"118° 38' 38.761"" W","34° 4' 55.354"" N",SA,,Mapped,34.08204765,-118.64411248,307,34.08128521,-118.6455619
7923,Backbone Trail,CA State Parks - Malibu Creek,0301248,030012,0300040000,010008,1,TH,Auto Generated and Verified,1992,Unincorporated Los Angeles County,90265,3rd District,Castro Peak Mtwy,"118° 45' 30.218"" W","34° 4' 55.211"" N",SA,,Mapped,34.08200797,-118.75840606,307,34.08202331,-118.75840519
7924,Backbone Trail,National Parks Service,0201258,030012,0200190000,020015,1,TH,Confirmed with NPS data points,1540,Unincorporated Los Angeles County,90265,3rd District,1701 S Kanan Dume Rd,"118° 48' 57.340"" W","34° 4' 34.051"" N",SA,,Mapped,34.07613002,-118.81594009,307,34.07597932,-118.81541283
7925,Backbone Trail,CA State Parks - Topanga,0101260,030012,0101180000,010010,1,TAPO,Auto Generated and Verified,1184,Unincorporated Los Angeles County,90290,3rd District,20800 Entrada Rd,"118° 35' 14.804"" W","34° 5' 36.925"" N",SA,,Mapped,34.09359514,-118.58745787,307,34.09327604,-118.58832337
7926,Backbone Trail, ,0101261,030012,0100080000,010010,1,TAPO,,1179,Unincorporated Los Angeles County,90290,3rd District,20801 Entrada Rd,"118° 35' 17.556"" W","34° 5' 36.873"" N",SA,,Mapped,34.09358071,-118.58822225,307,34.09327604,-118.58832337
7927,Deer Valley Loop Trail,National Parks Service,0201259,020052,0200520000,,1,TH,Auto Generated and Verified,1003,Unincorporated Los Angeles County,90265,3rd District,,"118° 45' 30.606"" W","34° 3' 7.183"" N",N,,Mapped,34.05200023,-118.75851394,130,34.0519954,-118.75850167
7928,Caballero Canyon Trail,,0201261,030016,0300160001,,1,TAPO,Access via Fire Road 28,991,Los Angeles,91356,3rd District,,"118° 32' 30.611"" W","34° 8' 26.196"" N",ST,,Mapped,34.14061477,-118.54184868,408,34.14060992,-118.54183644
7929,Zuma Canyon Trail,National Parks Service,0201260,020134,,020003,1,TH,From NPS,96,Malibu,90265,3rd District,End of Bonsall Drive,"118° 48' 44.057"" W","34° 1' 54.143"" N",SA,,Mapped,34.03171131,-118.81225024,397,34.03150978,-118.8121208
7931,Crags Road,CA State Parks - Malibu Creek,0101270,010048,,,1,TAPO,Auto Generated and Verified,1015,Unincorporated Los Angeles County,91302,3rd District,27637 Mulholland Hwy,"118° 43' 54.111"" W","34° 6' 19.021"" N",ST,,Mapped,34.10528844,-118.73170987,124,34.1052836,-118.7316976
7932,Eagle Springs Fire Road,CA State Parks - Topanga,0101271,010058,,,1,TAPO,Auto Generated and Verified,1125,Unincorporated Los Angeles County,90290,3rd District,20610 Hillside Dr,"118° 35' 12.821"" W","34° 5' 58.992"" N",ST,,Mapped,34.09972497,-118.58690706,136,34.09972013,-118.58689481
7939,West Mandeville Fire Road, ,0201262,020145,0201450000,020042,1,TH,Added From hard copy maps and state parks data,1879,Los Angeles,90049,3rd District,17460 Mulholland Dr,"118° 30' 48.638"" W","34° 7' 44.540"" N",SA,,Mapped,34.12904371,-118.51352284,404,34.12901524,-118.51349403
7940,Sullivan Fire Road,CA State Parks - Topanga,0201299,020144,0201440000,020042,1,TAPO,Added From hard copy maps and state parks data,1879,Los Angeles,90049,3rd District,17460 Mulholland Dr,"118° 30' 48.638"" W","34° 7' 44.540"" N",SA,,Mapped,34.12904371,-118.51352284,403,34.12901524,-118.51349403
7941,"Ann Skager Spur Trail
Ann Skager Spur Trail",CA State Parks - Malibu Creek,0101302,030010,0300100000,010012,1,TAPO,Auto Generated and Verified,539,Unincorporated Los Angeles County,91302,3rd District,27347 Waycross Dr,"118° 43' 1.366"" W","34° 5' 45.421"" N",SA,,Mapped,34.0959552,-118.71705847,207,34.09681547,-118.71614763
7942,Lower Bee Hive Trail,CA State Parks - Will Rogers,0101278,000022,0000220000,010006,1,TAPO,Auto Generated and Verified,426,Los Angeles,90272,3rd District,1666 Will Rogers State Park Rd,"118° 30' 47.379"" W","34° 3' 15.486"" N",SA,,Mapped,34.0543065,-118.51317308,32,34.05390543,-118.51161491
7943,Backbone Trail - Betty Rogers,CA State Parks - Will Rogers,0101279,010005,0100050000,010006,1,TAPO,Auto Generated and Verified,667,Los Angeles,90272,3rd District,1666 Will Rogers State Park Rd,"118° 30' 53.539"" W","34° 3' 30.664"" N",SA,,Mapped,34.05852272,-118.51488429,65,34.05390543,-118.51161491
7944,Backbone Trail - Bridge Bypass Equestrian Trail,CA State Parks - Malibu Creek,0101283,010006,0100060000,020068,1,TH,Auto Generated and Verified,463,Unincorporated Los Angeles County,91302,3rd District,26278 Piuma Rd,"118° 42' 12.114"" W","34° 4' 54.477"" N",SA,,Mapped,34.08180404,-118.70337732,66,34.08204647,-118.70431305
7945,Backbone Trail - Inspiration Point Loop,CA State Parks - Will Rogers,0101280,010011,0100110000,010006,1,TAPO,Auto Generated and Verified,617,Los Angeles,90272,3rd District,1666 Will Rogers State Park Rd,"118° 30' 51.925"" W","34° 3' 22.471"" N",SA,,Mapped,34.05624678,-118.51443584,73,34.05390543,-118.51161491
7946,Backbone Trail - Rogers Road,CA State Parks - Will Rogers,0101281,010019,0100190000,010006,1,TAPO,Auto Generated and Verified,708,Los Angeles,90272,3rd District,1666 Will Rogers State Park Rd,"118° 30' 49.321"" W","34° 3' 38.345"" N",SA,,Mapped,34.06065636,-118.51371252,82,34.05390543,-118.51161491
7947,Backbone Trail - Temescal Ridge Fire Road, ,0101340,010022,0100220000,,1,TAPO,,1724,Los Angeles,91356,3rd District,3001 Reseda Blvd,"118° 33' 13.514"" W","34° 7' 43.063"" N",ST,,Mapped,34.12863336,-118.553766,85,34.12862851,-118.55375375
7948,Bay Tree Trail, ,0101341,010027,0100270000,,1,TAPO,,1724,Los Angeles,91356,3rd District,3001 Reseda Blvd,"118° 33' 13.514"" W","34° 7' 43.063"" N",ST,,Mapped,34.12863336,-118.553766,93,34.12862851,-118.55375375
7949,Yellow Hill Fire Trl Alternate,CA State Parks - Leo Carrillo,0101355,010181,0101810000,,1,TAPO,,23,Ventrua County,,,,"118° 56' 6.644"" W","34° 2' 46.641"" N",ST,,Mapped,34.04629397,-118.93519105,306,34.04628915,-118.93517875
7950,Water Tank Road,CA State Parks - Leo Carrillo,0101312,010174,0101760000,010005,1,TAPO,,13,Unincorporated Los Angeles County,90265,3rd District,35907 Pacific Coast Hwy,"118° 56' 1.403"" W","34° 2' 46.320"" N",SA,,Mapped,34.04620493,-118.9337354,295,34.0460351,-118.93371838
7951,Leo Carrillo Scenic Overlook Trail,CA State Parks - Leo Carrillo,0101313,010096,0101760000,010005,1,TH,Auto Generated and Verified,594,Unincorporated Los Angeles County,90265,3rd District,35907 Pacific Coast Hwy,"118° 55' 41.102"" W","34° 3' 7.070"" N",SA,,Mapped,34.05196861,-118.92809611,171,34.0460351,-118.93371838
7952,Nicholas Flat ADA Trail,CA State Parks - Leo Carrillo,0101314,010184,0101840000,,1,TAPO,Added per Dale's request,1483,Unincorporated Los Angeles County,90265,3rd District,33700 Decker School Rd,"118° 54' 23.309"" W","34° 4' 14.190"" N",ST,,Mapped,34.07061305,-118.90648716,322,34.07060823,-118.90647486
7953,Nicholas Flat Trail,CA State Parks - Leo Carrillo,0101296,010121,0101210000,,1,TH,Auto Generated and Verified,1414,Unincorporated Los Angeles County,90265,3rd District,33700 Decker School Rd,"118° 54' 28.682"" W","34° 3' 56.054"" N",ST,,Mapped,34.06557529,-118.90797957,200,34.06557047,-118.90796727
7954,Nicholas Ridge Trail,CA State Parks - Leo Carrillo,0101315,010126,,,1,TAPO,Added per Dale's request,1483,Unincorporated Los Angeles County,90265,3rd District,33700 Decker School Rd,"118° 54' 23.309"" W","34° 4' 14.190"" N",ST,,Mapped,34.07061305,-118.90648716,206,34.07060823,-118.90647486
7955,Nicholas Ridge Motorway,CA State Parks - Leo Carrillo,0101316,010125,,,1,TAPO,Added per Dale's request,1483,Unincorporated Los Angeles County,90265,3rd District,33700 Decker School Rd,"118° 54' 23.309"" W","34° 4' 14.190"" N",ST,,Mapped,34.07061305,-118.90648716,205,34.07060823,-118.90647486
7956,Nicholas Flat Trail,CA State Parks - Leo Carrillo,0101297,010121,0101210000,,1,TH,Auto Generated and Verified,1422,Unincorporated Los Angeles County,90265,3rd District,33700 Decker School Rd,"118° 54' 30.128"" W","34° 3' 58.535"" N",ST,,Mapped,34.06626459,-118.90838132,200,34.06625978,-118.90836902
7957,Nicholas Pond Trail,CA State Parks - Leo Carrillo,0101318,010122,,,1,TAPO,Added per Dale's request,1483,Unincorporated Los Angeles County,90265,3rd District,33700 Decker School Rd,"118° 54' 23.309"" W","34° 4' 14.190"" N",ST,,Mapped,34.07061305,-118.90648716,202,34.07060823,-118.90647486
7958,Nicholas Flat Trail,CA State Parks - Leo Carrillo,0101298,010121,0101210000,,1,TH,Auto Generated and Verified,1512,Unincorporated Los Angeles County,90265,3rd District,33700 Decker School Rd,"118° 54' 25.755"" W","34° 4' 18.918"" N",ST,,Mapped,34.07192658,-118.90716649,200,34.07192176,-118.90715419
7959,Nicholas Ranch Road,CA State Parks - Leo Carrillo,0101301,010124,0101240000,,1,TAPO,Auto Generated and Verified,1483,Unincorporated Los Angeles County,90265,3rd District,33700 Decker School Rd,"118° 54' 23.309"" W","34° 4' 14.190"" N",ST,,Mapped,34.07061305,-118.90648716,204,34.07060823,-118.90647486
7960,Nicholas Ranch House Road,CA State Parks - Leo Carrillo,0101320,010123,,,1,TAPO,Added per Dale's request,1483,Unincorporated Los Angeles County,90265,3rd District,33700 Decker School Rd,"118° 54' 23.309"" W","34° 4' 14.190"" N",ST,,Mapped,34.07061305,-118.90648716,203,34.07060823,-118.90647486
7963,Nicholas Meadow Trail,CA State Parks - Leo Carrillo,0101322,010182,0300090000,,1,TAPO,Added per Dale's request,1483,Unincorporated Los Angeles County,90265,3rd District,33700 Decker School Rd,"118° 54' 23.309"" W","34° 4' 14.190"" N",ST,,Mapped,34.07061305,-118.90648716,201,34.07060823,-118.90647486
7964,Backbone Trail - Etz Meloy Motorway,National Parks Service,0201268,020008,0200070012,,1,TAPO,Auto Generated and Verified,1622,Unincorporated Los Angeles County,90265,3rd District,33286 Mulholland Hwy,"118° 52' 1.657"" W","34° 5' 29.967"" N",ST,,Mapped,34.09166241,-118.86713927,70,34.09165759,-118.86712697
7965,Backbone Trail - Etz Meloy Motorway Overlook,National Parks Service,0201269,020141,0200070012,,1,TAPO,Auto Generated and Verified,1622,Unincorporated Los Angeles County,90265,3rd District,33286 Mulholland Hwy,"118° 52' 1.657"" W","34° 5' 29.967"" N",ST,,Mapped,34.09166241,-118.86713927,401,34.09165759,-118.86712697
7966,Mulholland Highway,National Parks Service,0201270,020091,0200070012,,1,TAPO,Auto Generated and Verified,1622,Unincorporated Los Angeles County,90265,3rd District,33286 Mulholland Hwy,"118° 52' 1.657"" W","34° 5' 29.967"" N",ST,,Mapped,34.09166241,-118.86713927,364,34.09165759,-118.86712697
7967,Clarke Ranch Road Connector,National Parks Service,0201271,020043,0200420000,020067,1,TH,Auto Generated and Verified,1391,Unincorporated Los Angeles County,90265,3rd District,1091 Encinal Canyon Rd,"118° 51' 44.993"" W","34° 5' 8.773"" N",SA,,Mapped,34.08577506,-118.86251021,122,34.08530284,-118.86248446
7968,Clarke Ranch Road Connector,National Parks Service,0201267,020043,0200070000,020067,1,TH,Auto Generated and Verified,1398,Unincorporated Los Angeles County,90265,3rd District,1063 Encinal Canyon Rd,"118° 51' 41.708"" W","34° 5' 6.699"" N",SA,,Mapped,34.08519896,-118.86159778,122,34.08530284,-118.86248446
7969,Backbone Trail - Zuma Ridge Trail,National Parks Service,0201294,020020,0201370000,,1,TAPO,Confirmed with NPS data points,1724,Unincorporated Los Angeles County,90265,3rd District,500 Encinal Canyon Rd,"118° 50' 21.217"" W","34° 5' 12.594"" N",ST,,Mapped,34.08683648,-118.83923919,330,34.08683165,-118.8392269
7970,Pond Trail,National Parks Service,0201285,020101,0201120000,020024,1,TH,Confirmed with NPS data points,1709,Unincorporated Los Angeles County,90265,3rd District,31520 Mulholland Hwy,"118° 48' 50.706"" W","34° 5' 49.412"" N",SA,,Mapped,34.09706364,-118.81409729,371,34.09697274,-118.81415234
7971,Overlook Trail,National Parks Service,0201286,020095,0201120000,020024,1,TH,Confirmed with NPS data points,1709,Unincorporated Los Angeles County,90265,3rd District,31520 Mulholland Hwy,"118° 48' 50.706"" W","34° 5' 49.412"" N",SA,,Mapped,34.09706364,-118.81409729,366,34.09697274,-118.81415234
7972,Rocky Oaks - Unnamed,CA State Parks - Topanga,0101287,020110,0100700000,020024,1,TH,Confirmed with NPS data points,1709,Unincorporated Los Angeles County,90265,3rd District,31520 Mulholland Hwy,"118° 48' 50.706"" W","34° 5' 49.412"" N",SA,,Mapped,34.09706364,-118.81409729,380,34.09697274,-118.81415234
7973,Rocky Oaks Loop - Pond Connector,National Parks Service,0201287,020111,0201120000,020024,1,TH,Confirmed with NPS data points,1709,Unincorporated Los Angeles County,90265,3rd District,31520 Mulholland Hwy,"118° 48' 50.706"" W","34° 5' 49.412"" N",SA,,Mapped,34.09706364,-118.81409729,381,34.09697274,-118.81415234
7974,Zuma Canyon Connector Trail,National Parks Service,0201293,020133,0201350000,,1,TH,Confirmed with NPS data points,1323,Unincorporated Los Angeles County,90265,3rd District,2615 S Kanan Dume Rd,"118° 48' 14.580"" W","34° 3' 40.972"" N",ST,,Mapped,34.06138582,-118.80406238,396,34.06138099,-118.8040501
7975,Canyon View Trail,National Parks Service,0201297,020033,,020003,1,TH,From NPS,96,Malibu,90265,3rd District,End of Bonsall Drive,"118° 48' 44.057"" W","34° 1' 54.143"" N",SA,,Mapped,34.03171131,-118.81225024,112,34.03150978,-118.8121208
7976,Scenic Trail (Zuma),National Parks Service,0201298,020116,,020003,1,TH,From NPS,96,Malibu,90265,3rd District,End of Bonsall Drive,"118° 48' 44.057"" W","34° 1' 54.143"" N",SA,,Mapped,34.03171131,-118.81225024,385,34.03150978,-118.8121208
7978,Edison Road,CA State Parks - Malibu Creek,0101282,020060,0100140000,010008,1,TH,Auto Generated and Verified,1992,Unincorporated Los Angeles County,90265,3rd District,Castro Peak Mtwy,"118° 45' 30.218"" W","34° 4' 55.211"" N",SA,,Mapped,34.08200797,-118.75840606,345,34.08202331,-118.75840519
7979,Topanga Ridge Motorway,CA State Parks - Malibu Creek,0201300,020123,0300020000,020017,1,TH,Auto Generated and Verified,2374,Unincorporated Los Angeles County,90290,3rd District,24839 Saddle Peak Rd,"118° 38' 42.252"" W","34° 4' 52.556"" N",SA,,Mapped,34.08127044,-118.64508228,391,34.08128521,-118.6455619
7980,Peter Strauss - Triunfo Loop,National Parks Service,0201284,020142,0201000000,020033,1,TAPO,Auto Generated and Verified,760,Unincorporated Los Angeles County,91301,3rd District,,"118° 46' 44.629"" W","34° 6' 44.460"" N",SA,,Mapped,34.11235484,-118.77907598,402,34.113872,-118.77854918
7981,Paramount Ridge Trail,National Parks Service,0201278,020098,0200700000,,1,TAPO,Auto Generated and Verified,809,Unincorporated Los Angeles County,91301,3rd District,3619 Cornell Rd,"118° 44' 59.755"" W","34° 7' 31.068"" N",ST,,Mapped,34.12530143,-118.7499441,368,34.1252966,-118.74993182
7982,Bwana Trail, ,0201295,020029,0200700002,,1,TAPO,Added From NPS ParkEntrancePts.shp,764,Unincorporated Los Angeles County,91301,3rd District,3450 Cornell Rd,"118° 45' 0.880"" W","34° 7' 24.685"" N",ST,,Mapped,34.12352858,-118.75025663,334,34.12352375,-118.75024435
7983,Ebb Tide Trail, ,0201296,020057,0200700002,,1,TAPO,Added From NPS ParkEntrancePts.shp,764,Unincorporated Los Angeles County,91301,3rd District,3450 Cornell Rd,"118° 45' 0.880"" W","34° 7' 24.685"" N",ST,,Mapped,34.12352858,-118.75025663,344,34.12352375,-118.75024435
7984,Racetrack Road,National Parks Service,0201291,020103,0201300000,020034,1,TAPO,Auto Generated and Verified,738,Unincorporated Los Angeles County,91301,3rd District,Paramount Ranch Rd,"118° 45' 18.864"" W","34° 6' 55.785"" N",SA,,Mapped,34.11550054,-118.75525222,373,34.115627,-118.75482105
7985,Medicine Woman Connector,National Parks Service,0201292,020083,0201300000,020034,1,TAPO,Auto Generated and Verified,738,Unincorporated Los Angeles County,91301,3rd District,Paramount Ranch Rd,"118° 45' 18.864"" W","34° 6' 55.785"" N",SA,,Mapped,34.11550054,-118.75525222,357,34.115627,-118.75482105
7986,Coyote - Hacienda Connector,National Parks Service,0201272,020047,0200480000,020034,1,TAPO,Auto Generated and Verified,756,Unincorporated Los Angeles County,91301,3rd District,Paramount Ranch Rd,"118° 45' 25.762"" W","34° 6' 56.859"" N",SA,,Mapped,34.11579905,-118.75716839,340,34.115627,-118.75482105
7987,Coyote Picnic Table Spur,National Parks Service,0201273,020049,0200480000,020034,1,TAPO,Auto Generated and Verified,756,Unincorporated Los Angeles County,91301,3rd District,Paramount Ranch Rd,"118° 45' 25.762"" W","34° 6' 56.859"" N",SA,,Mapped,34.11579905,-118.75716839,342,34.115627,-118.75482105
7988,Racetrack Turn 7,National Parks Service,0201274,020104,0200480000,020034,1,TAPO,Auto Generated and Verified,756,Unincorporated Los Angeles County,91301,3rd District,Paramount Ranch Rd,"118° 45' 25.762"" W","34° 6' 56.859"" N",SA,,Mapped,34.11579905,-118.75716839,374,34.115627,-118.75482105
7989,Bwana Connector,National Parks Service,0201279,020028,0200700000,,1,TAPO,Auto Generated and Verified,809,Unincorporated Los Angeles County,91301,3rd District,3619 Cornell Rd,"118° 44' 59.755"" W","34° 7' 31.068"" N",ST,,Mapped,34.12530143,-118.7499441,333,34.1252966,-118.74993182
7990,Palo Comado Connector,National Parks Service,0201263,020096,0200020000,020051,1,TAPO,,1011,Unincorporated Los Angeles County,91301,3rd District,Cheseboro Canyon Rd and Cheseboro Road,"118° 43' 50.974"" W","34° 9' 23.571"" N",SA,,Mapped,34.15655231,-118.73083841,367,34.15611327,-118.73114169
7991,Canyon View Trail (Cheeseboro),National Parks Service,0201264,020034,0200020000,020051,1,TH,Auto Generated and Verified,1011,Unincorporated Los Angeles County,91301,3rd District,Cheseboro Canyon Rd and Cheseboro Road,"118° 43' 50.974"" W","34° 9' 23.571"" N",SA,,Mapped,34.15655231,-118.73083841,308,34.15611327,-118.73114169
7992,Cheeseboro Ridge Trail,National Parks Service,0201265,020039,0200020000,020051,1,TH,Auto Generated and Verified,1011,Unincorporated Los Angeles County,91301,3rd District,Cheseboro Canyon Rd and Cheseboro Road,"118° 43' 50.974"" W","34° 9' 23.571"" N",SA,,Mapped,34.15655231,-118.73083841,338,34.15611327,-118.73114169
7993,Modelo Trail Connector,National Parks Service,0201266,020086,0200020000,020051,1,TH,Auto Generated and Verified,1011,Unincorporated Los Angeles County,91301,3rd District,Cheseboro Canyon Rd and Cheseboro Road,"118° 43' 50.974"" W","34° 9' 23.571"" N",SA,,Mapped,34.15655231,-118.73083841,360,34.15611327,-118.73114169
7994,Deer Leg Trail,CA State Parks - Malibu Creek,0101291,010055,0101090000,010013,1,TAPO,Auto Generated and Verified,850,Unincorporated Los Angeles County,91301,3rd District,28848 Lake Vista Dr,"118° 45' 1.495"" W","34° 6' 43.472"" N",SA,,Mapped,34.11208046,-118.75042768,129,34.11234103,-118.75038034
7995,Deer Leg Connector Trail,CA State Parks - Malibu Creek,0101292,010054,0101090000,010013,1,TAPO,Auto Generated and Verified,850,Unincorporated Los Angeles County,91301,3rd District,28848 Lake Vista Dr,"118° 45' 1.495"" W","34° 6' 43.472"" N",SA,,Mapped,34.11208046,-118.75042768,128,34.11234103,-118.75038034
7996,Cage Creek Trail,CA State Parks - Malibu Creek,0101293,010037,0101090000,010013,1,TAPO,Auto Generated and Verified,850,Unincorporated Los Angeles County,91301,3rd District,28848 Lake Vista Dr,"118° 45' 1.495"" W","34° 6' 43.472"" N",SA,,Mapped,34.11208046,-118.75042768,107,34.11234103,-118.75038034
7997,Lookout Trail,CA State Parks - Malibu Creek,0101294,010104,0101090000,010013,1,TAPO,Auto Generated and Verified,850,Unincorporated Los Angeles County,91301,3rd District,28848 Lake Vista Dr,"118° 45' 1.495"" W","34° 6' 43.472"" N",SA,,Mapped,34.11208046,-118.75042768,177,34.11234103,-118.75038034
7998,Crags Road Connector, ,0101342,010050,0100440000,010012,1,TAPO,,549,Unincorporated Los Angeles County,91302,3rd District,27359 Waycross Dr,"118° 42' 58.413"" W","34° 5' 48.307"" N",SA,,Mapped,34.0967567,-118.71623806,125,34.09681547,-118.71614763
7999,Crags Trail, ,0101343,010051,0100440000,010012,1,TAPO,,549,Unincorporated Los Angeles County,91302,3rd District,27359 Waycross Dr,"118° 42' 58.413"" W","34° 5' 48.307"" N",SA,,Mapped,34.0967567,-118.71623806,126,34.09681547,-118.71614763
8000,Crags Vista Point Road, ,0101344,010052,0100440000,010012,1,TAPO,,549,Unincorporated Los Angeles County,91302,3rd District,27359 Waycross Dr,"118° 42' 58.413"" W","34° 5' 48.307"" N",SA,,Mapped,34.0967567,-118.71623806,127,34.09681547,-118.71614763
8001,High Road, ,0101345,010078,0100440000,010012,1,TAPO,,549,Unincorporated Los Angeles County,91302,3rd District,27359 Waycross Dr,"118° 42' 58.413"" W","34° 5' 48.307"" N",SA,,Mapped,34.0967567,-118.71623806,157,34.09681547,-118.71614763
8002,Rock Pool Trail, ,0101346,010147,0100440000,010012,1,TAPO,,549,Unincorporated Los Angeles County,91302,3rd District,27359 Waycross Dr,"118° 42' 58.413"" W","34° 5' 48.307"" N",SA,,Mapped,34.0967567,-118.71623806,260,34.09681547,-118.71614763
8003,Century Dam Route, ,0101347,010041,0100440000,010012,1,TAPO,,549,Unincorporated Los Angeles County,91302,3rd District,27359 Waycross Dr,"118° 42' 58.413"" W","34° 5' 48.307"" N",SA,,Mapped,34.0967567,-118.71623806,114,34.09681547,-118.71614763
8004,Century Lake Road, ,0101348,010042,0100440000,010012,1,TAPO,,549,Unincorporated Los Angeles County,91302,3rd District,27359 Waycross Dr,"118° 42' 58.413"" W","34° 5' 48.307"" N",SA,,Mapped,34.0967567,-118.71623806,115,34.09681547,-118.71614763
8005,Century Lake Trail, ,0101349,010043,0100440000,010012,1,TAPO,,549,Unincorporated Los Angeles County,91302,3rd District,27359 Waycross Dr,"118° 42' 58.413"" W","34° 5' 48.307"" N",SA,,Mapped,34.0967567,-118.71623806,116,34.09681547,-118.71614763
8006,Forest Trail, ,0101350,010067,0100440000,010012,1,TAPO,,549,Unincorporated Los Angeles County,91302,3rd District,27359 Waycross Dr,"118° 42' 58.413"" W","34° 5' 48.307"" N",SA,,Mapped,34.0967567,-118.71623806,145,34.09681547,-118.71614763
8007,Gorge Route, ,0101351,010073,0100440000,010012,1,TAPO,,549,Unincorporated Los Angeles County,91302,3rd District,27359 Waycross Dr,"118° 42' 58.413"" W","34° 5' 48.307"" N",SA,,Mapped,34.0967567,-118.71623806,150,34.09681547,-118.71614763
8008,Campfire Center Trail, ,0101352,010039,0100440000,010012,1,TAPO,,549,Unincorporated Los Angeles County,91302,3rd District,27359 Waycross Dr,"118° 42' 58.413"" W","34° 5' 48.307"" N",SA,,Mapped,34.0967567,-118.71623806,111,34.09681547,-118.71614763
8009,Group Camp Road, ,0101353,010075,0100440000,010012,1,TAPO,,549,Unincorporated Los Angeles County,91302,3rd District,27359 Waycross Dr,"118° 42' 58.413"" W","34° 5' 48.307"" N",SA,,Mapped,34.0967567,-118.71623806,152,34.09681547,-118.71614763
8010,Group Camp Service Road, ,0101354,010076,0100440000,010012,1,TAPO,,549,Unincorporated Los Angeles County,91302,3rd District,27359 Waycross Dr,"118° 42' 58.413"" W","34° 5' 48.307"" N",SA,,Mapped,34.0967567,-118.71623806,153,34.09681547,-118.71614763
8011,Big Rock Lateral,National Parks Service,0201288,020023,0201270000,,1,TAPO,,1555,Unincorporated Los Angeles County,90290,3rd District,3200 Tuna Canyon Rd,"118° 36' 59.519"" W","34° 3' 34.856"" N",ST,,Mapped,34.05968704,-118.61654529,100,34.0596822,-118.61653304
8012,Big Rock Motorway,National Parks Service,0201289,020024,0201270000,,1,TAPO,,1555,Unincorporated Los Angeles County,90290,3rd District,3200 Tuna Canyon Rd,"118° 36' 59.519"" W","34° 3' 34.856"" N",ST,,Mapped,34.05968704,-118.61654529,101,34.0596822,-118.61653304
8013,Budwood Motorway,National Parks Service,0201290,020026,0201270000,,1,TAPO,,1555,Unincorporated Los Angeles County,90290,3rd District,3200 Tuna Canyon Rd,"118° 36' 59.519"" W","34° 3' 34.856"" N",ST,,Mapped,34.05968704,-118.61654529,105,34.0596822,-118.61653304
8014,Parker Mesa Overlook Trail,CA State Parks - Topanga,0101289,010130,0101060000,010015,1,TAPO,,256,Los Angeles,90272,3rd District,575 Los Liones Dr,"118° 33' 36.447"" W","34° 2' 50.206"" N",SA,,Mapped,34.0472842,-118.56013629,238,34.04480537,-118.55836215
8015,Wire Break Trail,CA State Parks - Topanga,0101290,010178,0101060000,010015,1,TAPO,,256,Los Angeles,90272,3rd District,575 Los Liones Dr,"118° 33' 36.447"" W","34° 2' 50.206"" N",SA,,Mapped,34.0472842,-118.56013629,303,34.04480537,-118.55836215
8016,Nature Trail - Topanga, ,0101336,010120,0101770000,010010,1,TAPO,,1184,Unincorporated Los Angeles County,90290,3rd District,Entrada Rd,"118° 35' 16.043"" W","34° 5' 36.229"" N",SA,,Mapped,34.09340166,-118.587802,199,34.09327604,-118.58832337
8017,Visitor Center Road, ,0101337,010185,0101770000,010010,1,TAPO,,1184,Unincorporated Los Angeles County,90290,3rd District,Entrada Rd,"118° 35' 16.043"" W","34° 5' 36.229"" N",SA,,Mapped,34.09340166,-118.587802,323,34.09327604,-118.58832337
8018,Ed Edelman North Short Loop,National Parks Service,0201275,020059,0200580000,020041,1,TAPO,,1300,Unincorporated Los Angeles County,90290,3rd District,2747 N Topanga Canyon Blvd,"118° 35' 55.793"" W","34° 7' 38.513"" N",SA,,Mapped,34.12736966,-118.59884359,139,34.12741419,-118.59858979
8019,Fire Road Thirty,National Parks Service - Topanga,0201276,010066,0200620000,,1,TAPO,,1595,Los Angeles,91356,3rd District,3001 Reseda Blvd,"118° 33' 11.363"" W","34° 7' 52.675"" N",ST,,Mapped,34.13130356,-118.55316856,144,34.13129871,-118.55315632
8020,Garapito Trail,National Parks Service - Topanga,0201277,010068,0200620000,,1,TAPO,,1595,Los Angeles,91356,3rd District,3001 Reseda Blvd,"118° 33' 11.363"" W","34° 7' 52.675"" N",ST,,Mapped,34.13130356,-118.55316856,146,34.13129871,-118.55315632
8021,Farmers Ridge Trail,CA State Parks - Topanga,0101284,010065,0100640000,,1,TAPO,,1560,Los Angeles,90272,3rd District,18664 Mulholland Dr,"118° 32' 31.322"" W","34° 7' 39.220"" N",ST,,Mapped,34.12756597,-118.54204606,143,34.12756112,-118.54203381
8022,Santa Ynez Waterfall Trail,CA State Parks - Topanga,0101309,010150,0101490000,,1,TAPO,Auto Generated and Verified,608,Los Angeles,90272,3rd District,17415 Camino de Yatasto,"118° 34' 2.523"" W","34° 4' 42.002"" N",ST,,Mapped,34.07833887,-118.56737966,267,34.07833403,-118.56736741
8023,Backbone Trail - Eagle Rock Fire Road, ,0101338,010057,0101770000,010010,1,TAPO,,1184,Unincorporated Los Angeles County,90290,3rd District,Entrada Rd,"118° 35' 16.043"" W","34° 5' 36.229"" N",SA,,Mapped,34.09340166,-118.587802,135,34.09327604,-118.58832337
8024,Eagle Rock Connector, ,0101339,010186,0101770000,010010,1,TAPO,,1184,Unincorporated Los Angeles County,90290,3rd District,Entrada Rd,"118° 35' 16.043"" W","34° 5' 36.229"" N",SA,,Mapped,34.09340166,-118.587802,324,34.09327604,-118.58832337
8025,Temescal Ridge Fire Road,CA State Parks - Topanga,0101285,030011,0100640000,,1,TH,Auto Generated and Verified,1560,Los Angeles,90272,3rd District,18664 Mulholland Dr,"118° 32' 31.322"" W","34° 7' 39.220"" N",ST,,Mapped,34.12756597,-118.54204606,286,34.12756112,-118.54203381
8026,Bienveneda Trail,CA State Parks - Topanga,0101288,010032,0100920000,,1,TAPO,Auto Generated and Verified,818,Los Angeles,90272,3rd District,2121 McKain St,"118° 32' 28.106"" W","34° 3' 44.476"" N",ST,,Mapped,34.06235929,-118.54115271,99,34.06235445,-118.54114048
8027,Betty Rogers Connector Trail,CA State Parks - Will Rogers,0101326,010031,0101340000,010006,1,TAPO,Auto Generated and Verified,430,Los Angeles,90272,3rd District,14400 Villa Woods Pl,"118° 30' 42.398"" W","34° 3' 16.301"" N",SA,,Mapped,34.05453293,-118.51178947,97,34.05390543,-118.51161491
8028,Bone Canyon Road,CA State Parks - Will Rogers,0101327,010033,0101340000,010006,1,TAPO,Auto Generated and Verified,430,Los Angeles,90272,3rd District,14400 Villa Woods Pl,"118° 30' 42.398"" W","34° 3' 16.301"" N",SA,,Mapped,34.05453293,-118.51178947,102,34.05390543,-118.51161491
8029,Bone Canyon Trail,CA State Parks - Will Rogers,0101328,010034,0101340000,010006,1,TAPO,Auto Generated and Verified,430,Los Angeles,90272,3rd District,14400 Villa Woods Pl,"118° 30' 42.398"" W","34° 3' 16.301"" N",SA,,Mapped,34.05453293,-118.51178947,103,34.05390543,-118.51161491
8030,Bridal Path,CA State Parks - Will Rogers,0101329,010035,0101340000,010006,1,TAPO,Auto Generated and Verified,430,Los Angeles,90272,3rd District,14400 Villa Woods Pl,"118° 30' 42.398"" W","34° 3' 16.301"" N",SA,,Mapped,34.05453293,-118.51178947,104,34.05390543,-118.51161491
8031,Inspiration Point Road,CA State Parks - Will Rogers,0101330,010086,0101340000,010006,1,TAPO,Auto Generated and Verified,430,Los Angeles,90272,3rd District,14400 Villa Woods Pl,"118° 30' 42.398"" W","34° 3' 16.301"" N",SA,,Mapped,34.05453293,-118.51178947,161,34.05390543,-118.51161491
8032,Stables Road,CA State Parks - Will Rogers,0101331,010155,0101340000,010006,1,TAPO,Auto Generated and Verified,430,Los Angeles,90272,3rd District,14400 Villa Woods Pl,"118° 30' 42.398"" W","34° 3' 16.301"" N",SA,,Mapped,34.05453293,-118.51178947,278,34.05390543,-118.51161491
8033,Rivas Overlook Trail,CA State Parks - Will Rogers,0101332,010144,0101340000,010006,1,TAPO,Auto Generated and Verified,430,Los Angeles,90272,3rd District,14400 Villa Woods Pl,"118° 30' 42.398"" W","34° 3' 16.301"" N",SA,,Mapped,34.05453293,-118.51178947,258,34.05390543,-118.51161491
8034,Rivas Overlook Trail ADA Section,CA State Parks - Will Rogers,0101333,010145,0101340000,010006,1,TAPO,Auto Generated and Verified,430,Los Angeles,90272,3rd District,14400 Villa Woods Pl,"118° 30' 42.398"" W","34° 3' 16.301"" N",SA,,Mapped,34.05453293,-118.51178947,259,34.05390543,-118.51161491
8035,Sarah Point Road,CA State Parks - Will Rogers,0101334,010151,0101340000,010006,1,TAPO,Auto Generated and Verified,430,Los Angeles,90272,3rd District,14400 Villa Woods Pl,"118° 30' 42.398"" W","34° 3' 16.301"" N",SA,,Mapped,34.05453293,-118.51178947,268,34.05390543,-118.51161491
8036,Service Road,CA State Parks - Will Rogers,0101335,010152,0101340000,010006,1,TAPO,Auto Generated and Verified,430,Los Angeles,90272,3rd District,14400 Villa Woods Pl,"118° 30' 42.398"" W","34° 3' 16.301"" N",SA,,Mapped,34.05453293,-118.51178947,275,34.05390543,-118.51161491
8037,Sullivan Ridge Trail,CA State Parks - Topanga,0101310,010159,0101580000,,1,TAPO,Auto Generated and Verified,658,Los Angeles,90272,3rd District,1783 Alta Mura Rd,"118° 30' 17.272"" W","34° 3' 48.178"" N",ST,,Mapped,34.06338751,-118.50480996,281,34.06338267,-118.50479772
8038,Beehive Connector Trail,CA State Parks - Topanga,0101304,010028,0300070000,010006,1,TAPO,Auto Generated and Verified,415,Los Angeles,90272,3rd District,1666 Will Rogers State Park Rd,"118° 30' 34.611"" W","34° 3' 15.881"" N",SA,,Mapped,34.0544161,-118.50962649,94,34.05390543,-118.51161491
8039,Beehive Trail,CA State Parks - Topanga,0101305,010029,0300070000,010006,1,TAPO,Auto Generated and Verified,415,Los Angeles,90272,3rd District,1666 Will Rogers State Park Rd,"118° 30' 34.611"" W","34° 3' 15.881"" N",SA,,Mapped,34.0544161,-118.50962649,95,34.05390543,-118.51161491
8040,Joesepho Barn Road,CA State Parks - Topanga,0101306,010087,0300070000,010006,1,TAPO,Auto Generated and Verified,415,Los Angeles,90272,3rd District,1666 Will Rogers State Park Rd,"118° 30' 34.611"" W","34° 3' 15.881"" N",SA,,Mapped,34.0544161,-118.50962649,162,34.05390543,-118.51161491
8041,Joesepho Spur Trail,CA State Parks - Topanga,0101307,010088,0300070000,010006,1,TAPO,Auto Generated and Verified,415,Los Angeles,90272,3rd District,1666 Will Rogers State Park Rd,"118° 30' 34.611"" W","34° 3' 15.881"" N",SA,,Mapped,34.0544161,-118.50962649,163,34.05390543,-118.51161491
8042,Murphy Ranch Road Trail,CA State Parks - Topanga,0101308,020138,0300070000,010006,1,TAPO,Auto Generated and Verified,415,Los Angeles,90272,3rd District,1666 Will Rogers State Park Rd,"118° 30' 34.611"" W","34° 3' 15.881"" N",SA,,Mapped,34.0544161,-118.50962649,311,34.05390543,-118.51161491
8043,Piuma Connector Trail, ,0101324,010135,0100180000,010007,1,TAPO,,485,Unincorporated Los Angeles County,91302,3rd District,897 Las Virgenes Rd,"118° 42' 19.760"" W","34° 4' 59.374"" N",SA,,Mapped,34.08316434,-118.70550111,242,34.08008515,-118.70381667
8044,Puerco Mtwy,CA State Parks - Malibu Creek,0101295,010140,0101120000,,1,TAPO,Auto Generated and Verified,748,Unincorporated Los Angeles County,91302,3rd District,Mesa Peak Mtwy,"118° 42' 37.454"" W","34° 4' 41.700"" N",ST,,Mapped,34.07825482,-118.71041612,244,34.07824999,-118.71040385
8045,Temescal Radio Tower Spur, ,0101356,010166,0300080000,,1,TAPO,Added From NPS ParkEntrancePts.shp,917,Los Angeles,90272,3rd District,1775 W Michael Ln,"118° 33' 34.199"" W","34° 4' 44.798"" N",ST,,Mapped,34.07911528,-118.55951192,288,34.07911044,-118.55949968
8046,Musch Meadows Trail,CA State Parks - Topanga,0101358,010117,0101170000,020070,1,TAPO,Auto Generated and Verified,1137,Unincorporated Los Angeles County,90290,3rd District,Topanga Canyon Boulevard and Oakwood Drive,"118° 35' 19.487"" W","34° 6' 38.579"" N",SA,,Mapped,34.11072135,-118.58875865,196,34.11159825,-118.5902118
8047,Hearst Tank Motorway,National Parks Service,0201301,020067,0200670000,,1,TAPO,,1555,Unincorporated Los Angeles County,90290,3rd District,3200 Tuna Canyon Rd,"118° 36' 59.519"" W","34° 3' 34.856"" N",ST,,Mapped,34.05968704,-118.61654529,349,34.0596822,-118.61653304
8048,Pipe Corral Spur Trail,CA State Parks - Topanga,0101359,010133,0101330000,,1,TAPO,Auto Generated and Verified,0,Los Angeles,90272,3rd District,,"118° 31' 10.961"" W","34° 4' 45.626"" N",ST,,Mapped,34.07934551,-118.51972364,240,34.07934067,-118.5197114
8049,Willow Creek Trail,CA State Parks - Leo Carrillo,0101360,010176,0101760000,010005,1,TAPO,Auto Generated and Verified,0,Unincorporated Los Angeles County,90265,3rd District,35789 Pacific Coast Hwy,"118° 55' 59.095"" W","34° 2' 49.768"" N",SA,,Mapped,34.04716257,-118.93309434,301,34.0460351,-118.93371838
8050,Stunt Road - BBT Connector,CA State Parks - Malibu Creek,0101094,010156,0101560000,,1,TAPO,Added From NPS ParkEntrancePts.shp,0,Unincorporated Los Angeles County,91302,3rd District,814 Stunt Rd,"118° 39' 36.273"" W","34° 5' 9.578"" N",ST,,Mapped,34.08599879,-118.66008813,279,34.08599395,-118.66007587
8051,Glade Trail - Topanga,CA State Parks - Topanga,0101361,010070,0100700000,010010,1,TAPO,Auto Generated and Verified,1191,Los Angeles,90290,3rd District,20800 Entrada Rd,"118° 35' 14.307"" W","34° 5' 36.085"" N",SA,,Mapped,34.09336192,-118.58731966,147,34.09327604,-118.58832337
8053,Ahwingna Trail,,0401540,000092,0000920001,040022,1,TH,"w/ gate open to pedestrians, good habitat auth signage, at staging area",505,Unincorporated Los Angeles County,91745,Supervisorial District 4,Orange Grove Avenue and South 7th Street,"117° 59' 38.386"" W","34° 0' 34.121"" N",SA,C:\Users\George Kenegos\Desktop\1_28_all data\MKTVP_1_28_AHWINGA_PART 1~files\IMG_000011.jpg,Mapped,34.00947804,-117.99399598,421,34.00956,-117.993987
